{"type":"FeatureCollection","features":[{"type":"Feature","geometry":{"type":"Polygon","coordinates":[[[-3.0652882,53.153849],[-3.0656264,53.1528196],[-3.0657975,53.1521434],[-3.0653287,53.151714],[-3.0650309,53.1517938],[-3.0645129,53.1516714],[-3.0635041,53.1514329],[-3.0634598,53.150939],[-3.0602544,53.1502773],[-3.0597386,53.1504087],[-3.0584352,53.1507406],[-3.0583023,53.1507205],[-3.0553946,53.1502819],[-3.0552987,53.150518],[-3.0552205,53.1507107],[-3.0552205,53.1512188],[-3.0553151,53.151285],[-3.0555268,53.1514684],[-3.0559681,53.1517419],[-3.0573387,53.1521006],[-3.057555,53.1521933],[-3.05776,53.1522812],[-3.0581598,53.1525878],[-3.058857,53.1531372],[-3.0587881,53.1533785],[-3.0585082,53.1536064],[-3.0584183,53.1537901],[-3.0582109,53.1542142],[-3.0586595,53.155179],[-3.0592721,53.1550928],[-3.0596646,53.1550375],[-3.0598359,53.1550231],[-3.0612753,53.1546939],[-3.0616363,53.15476],[-3.0610967,53.1557221],[-3.061108,53.156123],[-3.0611121,53.1562691],[-3.061217,53.156273],[-3.0628199,53.1560526],[-3.0643326,53.1558389],[-3.0644156,53.1555898],[-3.0645284,53.1552515],[-3.0637673,53.1551917],[-3.0636084,53.1550383],[-3.0630703,53.1549848],[-3.0631557,53.1539214],[-3.0641944,53.1540929],[-3.0644037,53.1536478],[-3.0652882,53.153849]]]},"properties":{"kind":"industrial","name":"Padeswood Cement Works"}},{"type":"Feature","geometry":{"type":"Polygon","coordinates":[[[-3.0549784,53.1599379],[-3.0547424,53.1599058],[-3.0546364,53.1599396],[-3.0546311,53.1602178],[-3.0545372,53.1602172],[-3.0540758,53.1602147],[-3.0539263,53.1602138],[-3.0541093,53.1603662],[-3.05408,53.1606054],[-3.0545336,53.1606016],[-3.0545316,53.160701],[-3.0546565,53.1607002],[-3.0546351,53.1607348],[-3.0546105,53.1610248],[-3.0549559,53.1610526],[-3.0549529,53.1607235],[-3.054969,53.1602363],[-3.0549784,53.1599379]]]},"properties":{"kind":"industrial","name":null}},{"type":"Feature","geometry":{"type":"Polygon","coordinates":[[[-3.067561,53.1601164],[-3.0676601,53.1602098],[-3.0679822,53.1600962],[-3.0678932,53.1599897],[-3.067561,53.1601164]]]},"properties":{"kind":"bunker_silo","name":null}}]}