{"type":"FeatureCollection","features":[{"type":"Feature","geometry":{"type":"Polygon","coordinates":[[[-3.0663,53.1484],[-3.065688,53.148274],[-3.063511,53.152065],[-3.064123,53.152192],[-3.0663,53.1484]]]},"properties":{"id":"CWA-0100","name":"Off-plot infrastructure (AGI compound, access road, car park, laydown)","color":"#c8c8c8","kind":"cwa"}},{"type":"Feature","geometry":{"type":"Polygon","coordinates":[[[-3.063617,53.151882],[-3.05913,53.150955],[-3.059024,53.151139],[-3.063511,53.152065],[-3.063617,53.151882]]]},"properties":{"id":"CWA-0200","name":"CCU road infrastructure, drainage, underground piping","color":"#8f8f8f","kind":"cwa"}},{"type":"Feature","geometry":{"type":"Polygon","coordinates":[[[-3.062633,53.150516],[-3.06197,53.150379],[-3.061479,53.151235],[-3.062141,53.151372],[-3.062633,53.150516]]]},"properties":{"id":"CWA-0300","name":"CO2 AGI compound","color":"#7fffd4","kind":"cwa"}},{"type":"Feature","geometry":{"type":"Polygon","coordinates":[[[-3.063535,53.150634],[-3.062668,53.150455],[-3.062194,53.15128],[-3.063061,53.151459],[-3.063535,53.150634]]]},"properties":{"id":"CWA-0400","name":"Regeneration area","color":"#fa8072","kind":"cwa"}},{"type":"Feature","geometry":{"type":"Polygon","coordinates":[[[-3.06183,53.150624],[-3.061167,53.150487],[-3.060816,53.151098],[-3.061479,53.151235],[-3.06183,53.150624]]]},"properties":{"id":"CWA-0500","name":"Future SCR","color":"#00e5ee","kind":"cwa"}},{"type":"Feature","geometry":{"type":"Polygon","coordinates":[[[-3.06204,53.150257],[-3.060817,53.150004],[-3.060606,53.150371],[-3.06183,53.150624],[-3.06204,53.150257]]]},"properties":{"id":"CWA-0600","name":"CCU, FGD and flue gas stack","color":"#9370db","kind":"cwa"}},{"type":"Feature","geometry":{"type":"Polygon","coordinates":[[[-3.062047,53.149848],[-3.061486,53.149732],[-3.061276,53.150099],[-3.061836,53.150214],[-3.062047,53.149848]]]},"properties":{"id":"CWA-0620","name":"Absorber","color":"#8a5fc0","kind":"cwa"}},{"type":"Feature","geometry":{"type":"Polygon","coordinates":[[[-3.061434,53.149823],[-3.060975,53.149729],[-3.060817,53.150004],[-3.061276,53.150099],[-3.061434,53.149823]]]},"properties":{"id":"CWA-0630","name":"Quencher","color":"#8b2323","kind":"cwa"}},{"type":"Feature","geometry":{"type":"Polygon","coordinates":[[[-3.061592,53.149548],[-3.061133,53.149454],[-3.060975,53.149729],[-3.061434,53.149823],[-3.061592,53.149548]]]},"properties":{"id":"CWA-0640","name":"Treated gas wash tower","color":"#add8e6","kind":"cwa"}},{"type":"Feature","geometry":{"type":"Polygon","coordinates":[[[-3.062152,53.149664],[-3.061592,53.149548],[-3.061486,53.149732],[-3.062047,53.149848],[-3.062152,53.149664]]]},"properties":{"id":"CWA-0650","name":"Gas gas heater","color":"#8b8b00","kind":"cwa"}},{"type":"Feature","geometry":{"type":"Polygon","coordinates":[[[-3.063611,53.149705],[-3.061266,53.149221],[-3.061168,53.149392],[-3.063513,53.149877],[-3.063611,53.149705]]]},"properties":{"id":"CWA-0700","name":"East-West main piperack — onsite","color":"#ffd700","kind":"cwa"}},{"type":"Feature","geometry":{"type":"Polygon","coordinates":[[[-3.062431,53.148285],[-3.062125,53.148222],[-3.061521,53.149274],[-3.061827,53.149337],[-3.062431,53.148285]]]},"properties":{"id":"CWA-0701","name":"North-South main piperack — onsite","color":"#f5e050","kind":"cwa"}},{"type":"Feature","geometry":{"type":"Polygon","coordinates":[[[-3.061266,53.149221],[-3.060246,53.149011],[-3.060148,53.149182],[-3.061168,53.149392],[-3.061266,53.149221]]]},"properties":{"id":"CWA-0710","name":"East-West main piperack — offsite","color":"#ffec8b","kind":"cwa"}},{"type":"Feature","geometry":{"type":"Polygon","coordinates":[[[-3.062642,53.147918],[-3.062336,53.147855],[-3.062125,53.148222],[-3.062431,53.148285],[-3.062642,53.147918]]]},"properties":{"id":"CWA-0711","name":"North-South main piperack — offsite","color":"#fff2a8","kind":"cwa"}},{"type":"Feature","geometry":{"type":"Polygon","coordinates":[[[-3.061168,53.149392],[-3.060148,53.149182],[-3.059586,53.15016],[-3.060606,53.150371],[-3.061168,53.149392]]]},"properties":{"id":"CWA-0800","name":"CHP plant and steam turbine","color":"#ff8c00","kind":"cwa"}},{"type":"Feature","geometry":{"type":"Polygon","coordinates":[[[-3.064438,53.149657],[-3.063112,53.149383],[-3.062761,53.149995],[-3.064086,53.150269],[-3.064438,53.149657]]]},"properties":{"id":"CWA-0900","name":"CO2 compression area — onsite","color":"#da70d6","kind":"cwa"}},{"type":"Feature","geometry":{"type":"Polygon","coordinates":[[[-3.064494,53.150353],[-3.063781,53.150206],[-3.063535,53.150634],[-3.064249,53.150781],[-3.064494,53.150353]]]},"properties":{"id":"CWA-0910","name":"CO2 compression area — offsite","color":"#c98fc9","kind":"cwa"}},{"type":"Feature","geometry":{"type":"Polygon","coordinates":[[[-3.06397,53.149082],[-3.062185,53.148713],[-3.061827,53.149337],[-3.063611,53.149705],[-3.06397,53.149082]]]},"properties":{"id":"CWA-1000","name":"Ancillary process area — onsite","color":"#4169e1","kind":"cwa"}},{"type":"Feature","geometry":{"type":"Polygon","coordinates":[[[-3.063351,53.148968],[-3.062637,53.14882],[-3.0623,53.149407],[-3.063014,53.149555],[-3.063351,53.148968]]]},"properties":{"id":"CWA-1010","name":"Ancillary process area — offsite","color":"#27408b","kind":"cwa"}},{"type":"Feature","geometry":{"type":"Polygon","coordinates":[[[-3.061466,53.148873],[-3.060447,53.148662],[-3.060148,53.149182],[-3.061168,53.149392],[-3.061466,53.148873]]]},"properties":{"id":"CWA-1100","name":"Main substation / local equipment room","color":"#00e000","kind":"cwa"}},{"type":"Feature","geometry":{"type":"Polygon","coordinates":[[[-3.0618,53.148292],[-3.06078,53.148081],[-3.060447,53.148662],[-3.061466,53.148873],[-3.0618,53.148292]]]},"properties":{"id":"CWA-1200","name":"Cooling water tower","color":"#ffb6c1","kind":"cwa"}},{"type":"Feature","geometry":{"type":"Polygon","coordinates":[[[-3.06543,53.148426],[-3.064461,53.148225],[-3.06404,53.148959],[-3.065009,53.149159],[-3.06543,53.148426]]]},"properties":{"id":"CWA-1300","name":"Storm water holding pond","color":"#ff9999","kind":"cwa"}},{"type":"Feature","geometry":{"type":"Polygon","coordinates":[[[-3.064103,53.148254],[-3.062624,53.147949],[-3.062185,53.148713],[-3.063664,53.149018],[-3.064103,53.148254]]]},"properties":{"id":"CWA-1400","name":"Tank farm and utilities","color":"#dda0dd","kind":"cwa"}},{"type":"Feature","geometry":{"type":"Polygon","coordinates":[[[-3.060606,53.150371],[-3.059586,53.15016],[-3.05913,53.150955],[-3.06015,53.151166],[-3.060606,53.150371]]]},"properties":{"id":"CWA-1500","name":"Existing cement plant brownfield tie-ins & flue gas ducting","color":"#20b2aa","kind":"cwa"}},{"type":"Feature","geometry":{"type":"Polygon","coordinates":[[[-3.061198,53.151724],[-3.05977,53.151429],[-3.059454,53.15198],[-3.060882,53.152275],[-3.061198,53.151724]]]},"properties":{"id":"CWA-1600","name":"Central control room","color":"#ff00ff","kind":"cwa"}},{"type":"Feature","geometry":{"type":"Polygon","coordinates":[[[-3.062081,53.147802],[-3.061061,53.147592],[-3.06078,53.148081],[-3.0618,53.148292],[-3.062081,53.147802]]]},"properties":{"id":"CWA-1700","name":"Water treatment plant","color":"#4682b4","kind":"cwa"}}]}