{"type":"FeatureCollection","features":[{"type":"Feature","geometry":{"type":"Point","coordinates":[-3.0593606,53.1562653]},"properties":{"kind":"poi","name":"Padeswood"}},{"type":"Feature","geometry":{"type":"Point","coordinates":[-3.0565886,53.1575157]},"properties":{"kind":"poi","name":"Padeswood Drive Pole Transformer"}},{"type":"Feature","geometry":{"type":"Point","coordinates":[-3.06062485625,53.15326682083332]},"properties":{"kind":"named-area","name":"Padeswood Cement Works"}},{"type":"Feature","geometry":{"type":"Point","coordinates":[-3.0581562894736845,53.151744578947365]},"properties":{"kind":"named-building","name":"Clinker Dome"}},{"type":"Feature","geometry":{"type":"Point","coordinates":[-3.0856101875,53.148820887499994]},"properties":{"kind":"named-building","name":"Clubhouse"}},{"type":"Feature","geometry":{"type":"Point","coordinates":[-3.0637630875000004,53.155506912499995]},"properties":{"kind":"named-building","name":"Padeswood Hall"}},{"type":"Feature","geometry":{"type":"Point","coordinates":[-3.0477983499999994,53.14483823333333]},"properties":{"kind":"named-building","name":"Red Lion"}},{"type":"Feature","geometry":{"type":"Point","coordinates":[-3.0790343399999998,53.13507829]},"properties":{"kind":"named-building","name":"Y Fferm"}},{"type":"Feature","geometry":{"type":"Point","coordinates":[-3.081246533333333,53.13375571666666]},"properties":{"kind":"named-building","name":"The Old Stores Motorbike Cafe"}},{"type":"Feature","geometry":{"type":"Point","coordinates":[-3.0448566249999995,53.124940225]},"properties":{"kind":"named-building","name":"Replica Roman Fort"}}]}