{"type":"FeatureCollection","features":[{"type":"Feature","geometry":{"type":"Polygon","coordinates":[[[106.9168424,43.0024973],[106.9133234,42.9961258],[106.9063388,42.9877446],[106.9042844,42.9858374],[106.9022191,42.9849545],[106.9005775,42.9847622],[106.8970262,42.9849271],[106.8740988,42.9775725],[106.8726288,42.9786356],[106.8504417,42.9919825],[106.8481025,42.9942813],[106.8449593,42.9880585],[106.8400133,42.9842599],[106.8362689,42.9853665],[106.8331788,42.9876892],[106.8281472,42.9929085],[106.8241986,42.9979223],[106.8222568,43.0058392],[106.823394,43.0114879],[106.8213129,43.0149559],[106.821506,43.0194586],[106.8225143,43.027035],[106.8240774,43.0353583],[106.8101353,43.0504721],[106.821093,43.0503565],[106.821097,43.0503937],[106.8221444,43.0503927],[106.8221229,43.050186],[106.8220398,43.0501429],[106.8215851,43.0501634],[106.8215677,43.0495636],[106.8219781,43.0495675],[106.8222839,43.0495215],[106.8232977,43.0495078],[106.8233057,43.0504466],[106.826521,43.0504936],[106.857184,43.0503995],[106.8695945,43.0503799],[106.8697448,43.0545487],[106.8781969,43.0554675],[106.8823061,43.0501796],[106.8819868,43.0395043],[106.8901819,43.0388782],[106.8899123,43.0373951],[106.8884385,43.034255],[106.8887823,43.0339753],[106.8910932,43.0358113],[106.9134951,43.0359054],[106.9170409,43.0351369],[106.9233012,43.0245099],[106.917454,43.0127044],[106.9173574,43.0027013],[106.9168424,43.0024973]]]},"properties":{"kind":"industrial","name":"Oyu Tolgoi"}},{"type":"Feature","geometry":{"type":"Polygon","coordinates":[[[106.8464183,43.135498],[106.8478104,43.1360519],[106.8483585,43.1353118],[106.8484729,43.1351574],[106.8470728,43.1346035],[106.8464183,43.135498]]]},"properties":{"kind":"apron","name":null}},{"type":"Feature","geometry":{"type":"Polygon","coordinates":[[[106.8589389,43.0175916],[106.8593681,43.0167562],[106.8594432,43.0160698],[106.8593842,43.0146225],[106.8579519,43.012218],[106.8568897,43.0113786],[106.8549156,43.0106098],[106.8563533,43.0095115],[106.8571472,43.0082013],[106.8578124,43.0064046],[106.8591749,43.0043647],[106.859529,43.0027562],[106.8594539,43.0018068],[106.8591213,43.0011948],[106.8586278,43.0002846],[106.857909,42.9986133],[106.8540251,42.9988644],[106.8476844,42.9978051],[106.8458444,42.997091],[106.8444604,42.9976246],[106.8434948,42.99755],[106.8411237,42.9980444],[106.8394393,42.9989664],[106.8386185,43.0005122],[106.838125,43.0057377],[106.8385434,43.0085308],[106.8421698,43.0109942],[106.8459463,43.0123985],[106.8481296,43.0120337],[106.8475825,43.0131555],[106.8472499,43.0139871],[106.847266,43.0149324],[106.8482369,43.016109],[106.8495877,43.0173885],[106.85233,43.0198665],[106.8543148,43.0200782],[106.8556774,43.0198351],[106.8579626,43.0187447],[106.8589389,43.0175916]]]},"properties":{"kind":"quarry","name":"Oyu Tolgoi - Southwest Oyu"}},{"type":"Feature","geometry":{"type":"Polygon","coordinates":[[[106.812247,43.0294511],[106.812754,43.0290668],[106.8118501,43.0284394],[106.81137,43.0288296],[106.812247,43.0294511]]]},"properties":{"kind":"bunker_silo","name":null}},{"type":"Feature","geometry":{"type":"Polygon","coordinates":[[[106.9085654,43.0423125],[106.9085376,43.04107],[106.9106192,43.041045],[106.9106309,43.041565],[106.9109394,43.0415613],[106.9109441,43.0417729],[106.9106249,43.0417768],[106.9106364,43.0422877],[106.9085654,43.0423125]]]},"properties":{"kind":"industrial","name":null}},{"type":"Feature","geometry":{"type":"Polygon","coordinates":[[[106.8976083,43.0407163],[106.8974394,43.0386383],[106.8979865,43.0383913],[106.9002128,43.038403],[106.9002771,43.0406888],[106.8976083,43.0407163]]]},"properties":{"kind":"industrial","name":null}},{"type":"Feature","geometry":{"type":"Polygon","coordinates":[[[106.8987858,43.0501056],[106.898759,43.0478084],[106.8981421,43.0477143],[106.8981045,43.0470753],[106.8983459,43.046797],[106.8983138,43.045711],[106.9024712,43.0457816],[106.9027126,43.0469538],[106.9032597,43.0469459],[106.9033295,43.0499841],[106.8987858,43.0501056]]]},"properties":{"kind":"industrial","name":null}}]}