{"type":"FeatureCollection","features":[{"type":"Feature","geometry":{"type":"Polygon","coordinates":[[[106.8222984,43.0469894],[106.8222727,43.0462381],[106.8226569,43.0462311],[106.8226825,43.0469824],[106.8222984,43.0469894]]]},"properties":{"kind":"building","building":"yes","name":"OT Admin","height":6.4}},{"type":"Feature","geometry":{"type":"Polygon","coordinates":[[[106.8221503,43.0454144],[106.823097,43.0454016],[106.8230756,43.0445571],[106.8221289,43.0445699],[106.822136,43.0449922],[106.8221503,43.0454144]]]},"properties":{"kind":"building","building":"yes","name":"Mazaalai Mess hall","height":3.2}},{"type":"Feature","geometry":{"type":"Polygon","coordinates":[[[106.8176067,43.0466037],[106.8181482,43.0465003],[106.8179217,43.0458899],[106.8173944,43.045983],[106.8176067,43.0466037]]]},"properties":{"kind":"building","building":"yes","name":"OT Cafeteria","height":3.2}},{"type":"Feature","geometry":{"type":"Polygon","coordinates":[[[106.8157621,43.0472773],[106.8159107,43.0472566],[106.8158045,43.0468894],[106.8156559,43.0469126],[106.8157621,43.0472773]]]},"properties":{"kind":"building","building":"yes","name":"OT Bar","height":3.2}},{"type":"Feature","geometry":{"type":"Polygon","coordinates":[[[106.8231081,43.0476236],[106.8231073,43.0474653],[106.8233527,43.0474646],[106.8233535,43.047623],[106.8231081,43.0476236]]]},"properties":{"kind":"building","building":"industrial","name":null,"height":5}},{"type":"Feature","geometry":{"type":"Polygon","coordinates":[[[106.8215117,43.0475122],[106.8215094,43.0474565],[106.8218242,43.0474495],[106.8218265,43.0475052],[106.8215117,43.0475122]]]},"properties":{"kind":"building","building":"commercial","name":null,"height":5}},{"type":"Feature","geometry":{"type":"Polygon","coordinates":[[[106.8230976,43.0471474],[106.8231754,43.0471451],[106.8231685,43.0470239],[106.8230907,43.0470263],[106.8230976,43.0471474]]]},"properties":{"kind":"building","building":"commercial","name":null,"height":5}},{"type":"Feature","geometry":{"type":"Polygon","coordinates":[[[106.8233501,43.0466165],[106.8234261,43.0466159],[106.8234236,43.0464441],[106.8233476,43.0464447],[106.8233501,43.0466165]]]},"properties":{"kind":"building","building":"commercial","name":null,"height":5}},{"type":"Feature","geometry":{"type":"Polygon","coordinates":[[[106.8230602,43.0465068],[106.8231414,43.0465042],[106.8231365,43.0464239],[106.8230553,43.0464265],[106.8230602,43.0465068]]]},"properties":{"kind":"building","building":"commercial","name":null,"height":5}},{"type":"Feature","geometry":{"type":"Polygon","coordinates":[[[106.81882,43.0441755],[106.8189213,43.0440625],[106.8191778,43.0441851],[106.8190765,43.0442982],[106.81882,43.0441755]]]},"properties":{"kind":"building","building":"commercial","name":null,"height":5}},{"type":"Feature","geometry":{"type":"Polygon","coordinates":[[[106.8182106,43.0457075],[106.8183217,43.0456449],[106.8181451,43.0454775],[106.818034,43.0455401],[106.8182106,43.0457075]]]},"properties":{"kind":"building","building":"commercial","name":null,"height":5}},{"type":"Feature","geometry":{"type":"Polygon","coordinates":[[[106.8184881,43.0455241],[106.8185451,43.045535],[106.8185821,43.0454309],[106.8185251,43.0454201],[106.8184881,43.0455241]]]},"properties":{"kind":"building","building":"commercial","name":null,"height":5}},{"type":"Feature","geometry":{"type":"Polygon","coordinates":[[[106.8172122,43.0469772],[106.8172738,43.0469667],[106.8172288,43.0468255],[106.8171671,43.046836],[106.8172122,43.0469772]]]},"properties":{"kind":"building","building":"commercial","name":null,"height":5}},{"type":"Feature","geometry":{"type":"Polygon","coordinates":[[[106.8171076,43.0466425],[106.8171711,43.0466317],[106.8172148,43.0467693],[106.8171512,43.04678],[106.8171076,43.0466425]]]},"properties":{"kind":"building","building":"commercial","name":null,"height":5}},{"type":"Feature","geometry":{"type":"Polygon","coordinates":[[[106.8170838,43.046583],[106.8171458,43.0465747],[106.8171093,43.0464283],[106.8170473,43.0464366],[106.8170838,43.046583]]]},"properties":{"kind":"building","building":"commercial","name":null,"height":5}},{"type":"Feature","geometry":{"type":"Polygon","coordinates":[[[106.8170244,43.0463795],[106.8170803,43.0463714],[106.8170425,43.0462308],[106.8169866,43.0462388],[106.8170244,43.0463795]]]},"properties":{"kind":"building","building":"commercial","name":null,"height":5}},{"type":"Feature","geometry":{"type":"Polygon","coordinates":[[[106.8169999,43.0461633],[106.817093,43.0461547],[106.8170782,43.0460698],[106.8169851,43.0460785],[106.8169999,43.0461633]]]},"properties":{"kind":"building","building":"commercial","name":null,"height":5}},{"type":"Feature","geometry":{"type":"Polygon","coordinates":[[[106.8170871,43.0469947],[106.8171472,43.0469852],[106.8171059,43.0468451],[106.8170459,43.0468546],[106.8170871,43.0469947]]]},"properties":{"kind":"building","building":"commercial","name":null,"height":5}},{"type":"Feature","geometry":{"type":"Polygon","coordinates":[[[106.8170242,43.0468004],[106.8170839,43.0467908],[106.8170407,43.0466473],[106.816981,43.0466569],[106.8170242,43.0468004]]]},"properties":{"kind":"building","building":"commercial","name":null,"height":5}},{"type":"Feature","geometry":{"type":"Polygon","coordinates":[[[106.8169593,43.0466046],[106.8170218,43.046595],[106.8169808,43.0464521],[106.8169182,43.0464617],[106.8169593,43.0466046]]]},"properties":{"kind":"building","building":"commercial","name":null,"height":5}},{"type":"Feature","geometry":{"type":"Polygon","coordinates":[[[106.8168606,43.0462598],[106.8169228,43.0462509],[106.8169617,43.0463964],[106.8168995,43.0464053],[106.8168606,43.0462598]]]},"properties":{"kind":"building","building":"commercial","name":null,"height":5}},{"type":"Feature","geometry":{"type":"Polygon","coordinates":[[[106.816697,43.0470323],[106.8167994,43.0470159],[106.8167039,43.0466973],[106.8166015,43.0467137],[106.816697,43.0470323]]]},"properties":{"kind":"building","building":"commercial","name":null,"height":5}},{"type":"Feature","geometry":{"type":"Polygon","coordinates":[[[106.8165829,43.0466537],[106.8166872,43.0466371],[106.8165909,43.0463142],[106.8164866,43.0463308],[106.8165829,43.0466537]]]},"properties":{"kind":"building","building":"commercial","name":null,"height":5}},{"type":"Feature","geometry":{"type":"Polygon","coordinates":[[[106.8159762,43.046758],[106.816084,43.0467405],[106.8159851,43.0464146],[106.8158772,43.0464321],[106.8159762,43.046758]]]},"properties":{"kind":"building","building":"commercial","name":null,"height":5}},{"type":"Feature","geometry":{"type":"Polygon","coordinates":[[[106.8160047,43.0463921],[106.8159803,43.0463142],[106.8164165,43.0462412],[106.8164409,43.0463191],[106.8160047,43.0463921]]]},"properties":{"kind":"building","building":"commercial","name":null,"height":5}},{"type":"Feature","geometry":{"type":"Polygon","coordinates":[[[106.8155267,43.046496],[106.815555,43.0464921],[106.8155831,43.0466026],[106.8157227,43.0465837],[106.8156666,43.0463628],[106.8154987,43.0463856],[106.8155267,43.046496]]]},"properties":{"kind":"building","building":"commercial","name":null,"height":5}},{"type":"Feature","geometry":{"type":"Polygon","coordinates":[[[106.815408,43.0467006],[106.8155077,43.0466854],[106.8154574,43.0465092],[106.8153577,43.0465244],[106.815408,43.0467006]]]},"properties":{"kind":"building","building":"commercial","name":null,"height":5}},{"type":"Feature","geometry":{"type":"Polygon","coordinates":[[[106.8169559,43.045992],[106.8170409,43.0459702],[106.8170014,43.0458876],[106.8169163,43.0459093],[106.8169559,43.045992]]]},"properties":{"kind":"building","building":"commercial","name":null,"height":5}},{"type":"Feature","geometry":{"type":"Polygon","coordinates":[[[106.816848,43.0458407],[106.8169136,43.0457928],[106.8168345,43.045735],[106.8167689,43.0457829],[106.816848,43.0458407]]]},"properties":{"kind":"building","building":"commercial","name":null,"height":5}},{"type":"Feature","geometry":{"type":"Polygon","coordinates":[[[106.8164921,43.0458297],[106.8165897,43.0457905],[106.8165419,43.0457269],[106.8164443,43.0457661],[106.8164921,43.0458297]]]},"properties":{"kind":"building","building":"commercial","name":null,"height":5}},{"type":"Feature","geometry":{"type":"Polygon","coordinates":[[[106.8162911,43.0459967],[106.8163593,43.0459311],[106.8162823,43.0458883],[106.8162141,43.045954],[106.8162911,43.0459967]]]},"properties":{"kind":"building","building":"commercial","name":null,"height":5}},{"type":"Feature","geometry":{"type":"Polygon","coordinates":[[[106.8161195,43.046092],[106.8162029,43.0461071],[106.816174,43.0461922],[106.8160907,43.0461772],[106.8161195,43.046092]]]},"properties":{"kind":"building","building":"commercial","name":null,"height":5}},{"type":"Feature","geometry":{"type":"Polygon","coordinates":[[[106.8465627,43.1350754],[106.8461363,43.1349012],[106.8461926,43.1348346],[106.8461577,43.134815],[106.846147,43.1347759],[106.8461423,43.1347602],[106.8461437,43.1347456],[106.8460732,43.1347191],[106.8461356,43.1346511],[106.8461946,43.1346756],[106.8462167,43.1346555],[106.8462576,43.1346452],[106.8463006,43.1346418],[106.8463193,43.1346438],[106.8463696,43.1345875],[106.8468088,43.1347583],[106.8465627,43.1350754]]]},"properties":{"kind":"building","building":"yes","name":"Хан бумбат нисэх буудал","height":20}},{"type":"Feature","geometry":{"type":"Polygon","coordinates":[[[106.8224502,43.0491227],[106.8224516,43.048909],[106.8224917,43.0487865],[106.8228619,43.0487414],[106.8230215,43.0487718],[106.8231502,43.0488394],[106.8231597,43.0489218],[106.823165,43.0490423],[106.8230649,43.0491019],[106.8224502,43.0491227]]]},"properties":{"kind":"building","building":"yes","name":"North gate","height":3}},{"type":"Feature","geometry":{"type":"Polygon","coordinates":[[[106.8216886,43.0495006],[106.821691,43.0493468],[106.821981,43.0493493],[106.8219785,43.0495031],[106.8216886,43.0495006]]]},"properties":{"kind":"building","building":"yes","name":"North gate","height":3}},{"type":"Feature","geometry":{"type":"Polygon","coordinates":[[[106.8222503,43.0495103],[106.8222469,43.0493212],[106.8231271,43.0493126],[106.8231305,43.0495017],[106.8222503,43.0495103]]]},"properties":{"kind":"building","building":"yes","name":"North gate","height":3}},{"type":"Feature","geometry":{"type":"Polygon","coordinates":[[[106.83864,43.0494666],[106.8386025,43.0479965],[106.8401957,43.0479965],[106.8402171,43.0494744],[106.83864,43.0494666]]]},"properties":{"kind":"building","building":"yes","name":"Stock pile","height":45}},{"type":"Feature","geometry":{"type":"Polygon","coordinates":[[[106.8377334,43.0460011],[106.8377388,43.0458541],[106.8380124,43.0458521],[106.8380097,43.0459972],[106.8377334,43.0460011]]]},"properties":{"kind":"building","building":"yes","name":"Maintenance","height":2}},{"type":"Feature","geometry":{"type":"Polygon","coordinates":[[[106.8372506,43.0466245],[106.8371192,43.0465108],[106.8371326,43.0464716],[106.8371996,43.0464383],[106.8371969,43.046305],[106.8371084,43.0462599],[106.8371138,43.0461148],[106.8371862,43.046058],[106.8373445,43.0460403],[106.8373659,43.0459012],[106.8375671,43.0458992],[106.8375564,43.0459698],[106.8376797,43.0459815],[106.8376824,43.0461266],[106.8377575,43.0461227],[106.8377575,43.0461638],[106.8378004,43.0461599],[106.8378058,43.0465461],[106.8377066,43.0465421],[106.8377039,43.046499],[106.8374088,43.0465049],[106.8373927,43.0466264],[106.8372506,43.0466245]]]},"properties":{"kind":"building","building":"yes","name":"Maintenance","height":2}},{"type":"Feature","geometry":{"type":"Polygon","coordinates":[[[106.8367517,43.0462599],[106.8367463,43.0459266],[106.8369368,43.0459325],[106.8369368,43.046256],[106.8367517,43.0462599]]]},"properties":{"kind":"building","building":"yes","name":"Maintenance","height":2}},{"type":"Feature","geometry":{"type":"Polygon","coordinates":[[[106.8362051,43.0461815],[106.8362145,43.0459512],[106.836389,43.0459551],[106.8363796,43.0461853],[106.8362051,43.0461815]]]},"properties":{"kind":"building","building":"yes","name":"Maintenance","height":2}},{"type":"Feature","geometry":{"type":"Polygon","coordinates":[[[106.8361955,43.0464556],[106.836192,43.0462885],[106.836583,43.0462842],[106.8365865,43.0464513],[106.8361955,43.0464556]]]},"properties":{"kind":"building","building":"yes","name":"Maintenance","height":2}},{"type":"Feature","geometry":{"type":"Polygon","coordinates":[[[106.8367947,43.046795],[106.8367866,43.0464441],[106.8369529,43.0464421],[106.8369502,43.046791],[106.8367947,43.046795]]]},"properties":{"kind":"building","building":"yes","name":"Maintenance","height":2}},{"type":"Feature","geometry":{"type":"Polygon","coordinates":[[[106.8372104,43.0468048],[106.837213,43.0466754],[106.8376958,43.0466637],[106.8377012,43.046797],[106.8372104,43.0468048]]]},"properties":{"kind":"building","building":"yes","name":"Maintenance","height":2}},{"type":"Feature","geometry":{"type":"Polygon","coordinates":[[[106.8323314,43.0466833],[106.8322912,43.046646],[106.832326,43.0464951],[106.8324789,43.046499],[106.8326023,43.0464226],[106.8327042,43.0465401],[106.8326077,43.046599],[106.8328142,43.0467225],[106.8326587,43.0468676],[106.8323314,43.0466833]]]},"properties":{"kind":"building","building":"industrial","name":"Хаягдал ус","height":5}},{"type":"Feature","geometry":{"type":"Polygon","coordinates":[[[106.8272319,43.048804],[106.8272115,43.0482404],[106.8281208,43.0482228],[106.8281304,43.0484887],[106.8284309,43.0484829],[106.8289344,43.0484732],[106.8289216,43.0481167],[106.8294153,43.0481072],[106.8294059,43.0478479],[106.829639,43.0478434],[106.8296484,43.0481023],[106.8298408,43.0480986],[106.8298511,43.0483816],[106.8305479,43.0483681],[106.8314208,43.0483513],[106.8314134,43.0481471],[106.8309778,43.0481556],[106.8309788,43.0481852],[106.8308171,43.0481883],[106.8308202,43.0482738],[106.8304103,43.0482817],[106.8303959,43.0479155],[106.8301481,43.0479227],[106.8301402,43.0477061],[106.8306409,43.0477051],[106.8306476,43.0478884],[106.8309312,43.0478829],[106.8309367,43.0480349],[106.8316568,43.048021],[106.8316594,43.0480928],[106.831791,43.0480903],[106.8317886,43.0480234],[106.8319235,43.0480208],[106.8319263,43.0480986],[106.8322421,43.0480925],[106.8322384,43.0479919],[106.8324693,43.0479874],[106.8324725,43.0480773],[106.8332205,43.0480629],[106.8332154,43.0479238],[106.8333921,43.0479204],[106.8333976,43.0480717],[106.8335788,43.0480682],[106.8335734,43.0479187],[106.8338186,43.0479139],[106.833824,43.0480657],[106.8340042,43.0480623],[106.8339954,43.0478194],[106.834617,43.0478074],[106.8346324,43.0482334],[106.8348058,43.0482301],[106.83481,43.0483452],[106.8348153,43.0484914],[106.8369357,43.0484504],[106.8369337,43.0483939],[106.8370754,43.0483911],[106.8370684,43.0481987],[106.8374127,43.048192],[106.8374211,43.0484229],[106.8376224,43.0484191],[106.8376194,43.0483355],[106.8377051,43.0483339],[106.8377027,43.0482653],[106.837925,43.048261],[106.8379303,43.0484061],[106.8379319,43.0484493],[106.8381199,43.0484456],[106.838122,43.0485032],[106.8379128,43.0485072],[106.8379246,43.0488326],[106.8381274,43.0488287],[106.8381303,43.0489074],[106.8379423,43.0489111],[106.8371139,43.0489271],[106.8370013,43.0489293],[106.8370038,43.0489987],[106.8368657,43.0490014],[106.8368628,43.0489215],[106.8353025,43.0489516],[106.8353046,43.0490088],[106.8356936,43.0490013],[106.8357015,43.0492217],[106.8348213,43.0492388],[106.8348195,43.0491892],[106.8341074,43.049203],[106.8341012,43.0490304],[106.8333698,43.0490445],[106.8333668,43.0489627],[106.8323316,43.0489827],[106.8323548,43.0496245],[106.8314509,43.0496419],[106.831426,43.0489552],[106.8310498,43.0489625],[106.8310349,43.04855],[106.8314177,43.0485426],[106.8314138,43.048437],[106.8302431,43.0484597],[106.8302457,43.0485307],[106.8309575,43.048517],[106.8309967,43.0496011],[106.8301124,43.0496181],[106.8300713,43.0484816],[106.8298529,43.0484858],[106.829864,43.0487914],[106.8289647,43.0488088],[106.8289554,43.0485523],[106.8284611,43.0485618],[106.8281443,43.0485679],[106.8281522,43.0487861],[106.828013,43.0487888],[106.8280185,43.0489416],[106.8277369,43.048947],[106.8277313,43.0487943],[106.8272319,43.048804]]]},"properties":{"kind":"building","building":"yes","name":"Concentrator","height":25}},{"type":"Feature","geometry":{"type":"Polygon","coordinates":[[[106.8293271,43.0423157],[106.8292765,43.0414449],[106.8295515,43.0414364],[106.8296021,43.0423072],[106.8293271,43.0423157]]]},"properties":{"kind":"building","building":"yes","name":null,"height":5}},{"type":"Feature","geometry":{"type":"Polygon","coordinates":[[[106.8288768,43.0423306],[106.8288473,43.0412897],[106.8291369,43.0412916],[106.8291396,43.0423306],[106.8288768,43.0423306]]]},"properties":{"kind":"building","building":"yes","name":"Уушын газар","height":5}},{"type":"Feature","geometry":{"type":"Polygon","coordinates":[[[106.8292147,43.0432843],[106.8292013,43.043151],[106.8290806,43.0431549],[106.8290859,43.0430353],[106.8290269,43.0430353],[106.8290108,43.042951],[106.829094,43.0429393],[106.829094,43.042753],[106.8290189,43.042757],[106.8290216,43.042708],[106.8290779,43.0427099],[106.8290779,43.0424825],[106.8296519,43.0424708],[106.8296438,43.042706],[106.8297082,43.0427138],[106.8297055,43.0427472],[106.8296412,43.0427432],[106.8296573,43.0429432],[106.8297967,43.0429393],[106.8297833,43.0430294],[106.8297216,43.0430216],[106.8297243,43.043198],[106.8296948,43.043198],[106.8296841,43.0432686],[106.8292147,43.0432843]]]},"properties":{"kind":"building","building":"yes","name":"Манлай Хоолны газар","height":3}},{"type":"Feature","geometry":{"type":"Polygon","coordinates":[[[106.827724,43.0416849],[106.8277133,43.0413085],[106.8286574,43.0412948],[106.8286574,43.041432],[106.8278206,43.0414477],[106.8278259,43.0415477],[106.8286655,43.0415339],[106.8286628,43.0416692],[106.827724,43.0416849]]]},"properties":{"kind":"building","building":"yes","name":"Манлай амрах байр","height":2.5}},{"type":"Feature","geometry":{"type":"Polygon","coordinates":[[[106.8310024,43.0416474],[106.8309917,43.041271],[106.8319358,43.0412573],[106.8319358,43.0413945],[106.8310989,43.0414102],[106.8311043,43.0415102],[106.8319438,43.0414965],[106.8319412,43.0416317],[106.8310024,43.0416474]]]},"properties":{"kind":"building","building":"yes","name":"Манлай амрах байр","height":2.5}},{"type":"Feature","geometry":{"type":"Polygon","coordinates":[[[106.8310145,43.0421709],[106.8310038,43.0417945],[106.8319479,43.0417808],[106.8319479,43.041918],[106.831111,43.0419337],[106.8311164,43.0420337],[106.8319559,43.0420199],[106.8319533,43.0421552],[106.8310145,43.0421709]]]},"properties":{"kind":"building","building":"yes","name":"Манлай амрах байр","height":2.5}},{"type":"Feature","geometry":{"type":"Polygon","coordinates":[[[106.8310305,43.042807],[106.8310198,43.0424306],[106.8319639,43.0424169],[106.8319639,43.0425541],[106.8311271,43.0425698],[106.8311325,43.0426697],[106.831972,43.042656],[106.8319693,43.0427913],[106.8310305,43.042807]]]},"properties":{"kind":"building","building":"yes","name":"Манлай амрах байр","height":2.5}},{"type":"Feature","geometry":{"type":"Polygon","coordinates":[[[106.831052,43.0433421],[106.8310413,43.0429658],[106.8319854,43.042952],[106.8319854,43.0430893],[106.8311486,43.0431049],[106.8311539,43.0432049],[106.8319935,43.0431912],[106.8319908,43.0433264],[106.831052,43.0433421]]]},"properties":{"kind":"building","building":"yes","name":"Манлай амрах байр","height":2.5}},{"type":"Feature","geometry":{"type":"Polygon","coordinates":[[[106.8277381,43.0422365],[106.8277274,43.0418602],[106.8286715,43.0418464],[106.8286715,43.0419837],[106.8278347,43.0419993],[106.8278401,43.0420993],[106.8286796,43.0420856],[106.8286769,43.0422208],[106.8277381,43.0422365]]]},"properties":{"kind":"building","building":"yes","name":"Манлай амрах байр","height":2.5}},{"type":"Feature","geometry":{"type":"Polygon","coordinates":[[[106.8277729,43.0428677],[106.8277622,43.0424913],[106.8287064,43.0424776],[106.8287064,43.0426148],[106.8278695,43.0426305],[106.8278749,43.0427305],[106.8287144,43.0427168],[106.8287117,43.042852],[106.8277729,43.0428677]]]},"properties":{"kind":"building","building":"yes","name":"Манлай амрах байр","height":2.5}},{"type":"Feature","geometry":{"type":"Polygon","coordinates":[[[106.8277797,43.0434019],[106.8277689,43.0430255],[106.8287131,43.0430118],[106.8287131,43.043149],[106.8278762,43.0431647],[106.8278816,43.0432647],[106.8287211,43.0432509],[106.8287184,43.0433862],[106.8277797,43.0434019]]]},"properties":{"kind":"building","building":"yes","name":"Манлай амрах байр","height":2.5}},{"type":"Feature","geometry":{"type":"Polygon","coordinates":[[[106.8265566,43.0422414],[106.8265513,43.0420846],[106.8273988,43.0420768],[106.8273988,43.0419631],[106.826562,43.0419748],[106.8265513,43.0418337],[106.8275101,43.0418366],[106.8275169,43.0422306],[106.8265566,43.0422414]]]},"properties":{"kind":"building","building":"yes","name":"Манлай амрах байр","height":2.5}},{"type":"Feature","geometry":{"type":"Polygon","coordinates":[[[106.8298222,43.0416768],[106.8298169,43.04152],[106.8306645,43.0415122],[106.8306645,43.0413985],[106.8298276,43.0414102],[106.8298169,43.0412691],[106.8307758,43.041272],[106.8307825,43.041666],[106.8298222,43.0416768]]]},"properties":{"kind":"building","building":"yes","name":"Манлай амрах байр","height":2.5}},{"type":"Feature","geometry":{"type":"Polygon","coordinates":[[[106.8298544,43.0421963],[106.829849,43.0420395],[106.8306966,43.0420316],[106.8306966,43.0419179],[106.8298598,43.0419297],[106.829849,43.0417886],[106.8308079,43.0417915],[106.8308146,43.0421855],[106.8298544,43.0421963]]]},"properties":{"kind":"building","building":"yes","name":"Манлай амрах байр","height":2.5}},{"type":"Feature","geometry":{"type":"Polygon","coordinates":[[[106.8298544,43.0428363],[106.829849,43.0426795],[106.8306966,43.0426717],[106.8306966,43.042558],[106.8298598,43.0425697],[106.829849,43.0424286],[106.8308079,43.0424315],[106.8308146,43.0428255],[106.8298544,43.0428363]]]},"properties":{"kind":"building","building":"yes","name":"Манлай амрах байр","height":2.5}},{"type":"Feature","geometry":{"type":"Polygon","coordinates":[[[106.8265513,43.04172],[106.8265459,43.0415632],[106.8273935,43.0415553],[106.8273935,43.0414416],[106.8265566,43.0414534],[106.8265459,43.0413122],[106.8275048,43.0413152],[106.8275115,43.0417092],[106.8265513,43.04172]]]},"properties":{"kind":"building","building":"yes","name":"Манлай амрах байр","height":2.5}},{"type":"Feature","geometry":{"type":"Polygon","coordinates":[[[106.8298692,43.0433852],[106.8298638,43.0432284],[106.8307114,43.0432205],[106.8307114,43.0431068],[106.8298745,43.0431186],[106.8298638,43.0429775],[106.8308227,43.0429804],[106.8308294,43.0433744],[106.8298692,43.0433852]]]},"properties":{"kind":"building","building":"yes","name":"Манлай амрах байр","height":2.5}},{"type":"Feature","geometry":{"type":"Polygon","coordinates":[[[106.8265861,43.0429079],[106.8265807,43.0427511],[106.8274283,43.0427432],[106.8274283,43.0426295],[106.8265914,43.0426413],[106.8265807,43.0425001],[106.8275396,43.0425031],[106.8275463,43.0428971],[106.8265861,43.0429079]]]},"properties":{"kind":"building","building":"yes","name":"Манлай амрах байр","height":2.5}},{"type":"Feature","geometry":{"type":"Polygon","coordinates":[[[106.8266022,43.0434332],[106.8265968,43.0432764],[106.8274444,43.0432686],[106.8274444,43.0431549],[106.8266075,43.0431666],[106.8265968,43.0430255],[106.8275557,43.0430284],[106.8275624,43.0434225],[106.8266022,43.0434332]]]},"properties":{"kind":"building","building":"yes","name":"Манлай амрах байр","height":2.5}},{"type":"Feature","geometry":{"type":"Polygon","coordinates":[[[106.8279675,43.0496452],[106.8282464,43.0496433],[106.8282451,43.0495938],[106.8279661,43.0495972],[106.8279675,43.0496452]]]},"properties":{"kind":"building","building":"yes","name":"Container","height":5}},{"type":"Feature","geometry":{"type":"Polygon","coordinates":[[[106.8279695,43.0497369],[106.8282484,43.0497349],[106.8282471,43.0496854],[106.8279681,43.0496888],[106.8279695,43.0497369]]]},"properties":{"kind":"building","building":"yes","name":"Container","height":5}},{"type":"Feature","geometry":{"type":"Polygon","coordinates":[[[106.8279701,43.0498312],[106.8282491,43.0498292],[106.8282478,43.0497797],[106.8279688,43.0497832],[106.8279701,43.0498312]]]},"properties":{"kind":"building","building":"yes","name":"Container","height":5}},{"type":"Feature","geometry":{"type":"Polygon","coordinates":[[[106.8464667,43.1369245],[106.8466437,43.1369968],[106.8469683,43.1365741],[106.8467913,43.1365017],[106.8464667,43.1369245]]]},"properties":{"kind":"building","building":"yes","name":null,"height":5}},{"type":"Feature","geometry":{"type":"Polygon","coordinates":[[[106.8026582,43.0194664],[106.802972,43.0196978],[106.8032184,43.0195192],[106.8029045,43.0192878],[106.8026582,43.0194664]]]},"properties":{"kind":"building","building":"yes","name":null,"height":5}},{"type":"Feature","geometry":{"type":"Polygon","coordinates":[[[106.8024033,43.0196998],[106.8027171,43.0199175],[106.8029498,43.0197381],[106.802636,43.0195204],[106.8024033,43.0196998]]]},"properties":{"kind":"building","building":"yes","name":null,"height":5}},{"type":"Feature","geometry":{"type":"Polygon","coordinates":[[[106.8042219,43.0188585],[106.8043208,43.0189275],[106.8046964,43.0186392],[106.8045974,43.0185702],[106.8042219,43.0188585]]]},"properties":{"kind":"building","building":"yes","name":null,"height":5}},{"type":"Feature","geometry":{"type":"Polygon","coordinates":[[[106.8042031,43.0186742],[106.8042923,43.0187347],[106.8045364,43.0185425],[106.8044472,43.018482],[106.8042031,43.0186742]]]},"properties":{"kind":"building","building":"yes","name":null,"height":5}},{"type":"Feature","geometry":{"type":"Polygon","coordinates":[[[106.8039725,43.018584],[106.8040764,43.018658],[106.8043822,43.0184286],[106.8042782,43.0183545],[106.8039725,43.018584]]]},"properties":{"kind":"building","building":"yes","name":null,"height":5}},{"type":"Feature","geometry":{"type":"Polygon","coordinates":[[[106.8037552,43.0184918],[106.8038758,43.018573],[106.8042192,43.0183004],[106.8040985,43.0182192],[106.8037552,43.0184918]]]},"properties":{"kind":"building","building":"yes","name":null,"height":5}},{"type":"Feature","geometry":{"type":"Polygon","coordinates":[[[106.8294346,43.0300687],[106.8314409,43.0308334],[106.8317177,43.0304453],[106.8297114,43.0296806],[106.8294346,43.0300687]]]},"properties":{"kind":"building","building":"yes","name":null,"height":5}},{"type":"Feature","geometry":{"type":"Polygon","coordinates":[[[106.8201193,43.0495881],[106.8204223,43.049589],[106.820425,43.0490892],[106.820122,43.0490883],[106.8201193,43.0495881]]]},"properties":{"kind":"building","building":"yes","name":null,"height":5}},{"type":"Feature","geometry":{"type":"Polygon","coordinates":[[[106.8201193,43.0489511],[106.8203605,43.048949],[106.8203524,43.048459],[106.8201112,43.0484611],[106.8201193,43.0489511]]]},"properties":{"kind":"building","building":"yes","name":null,"height":5}},{"type":"Feature","geometry":{"type":"Polygon","coordinates":[[[106.8196874,43.0489531],[106.8199235,43.0489531],[106.8199235,43.0484572],[106.8196874,43.0484572],[106.8196874,43.0489531]]]},"properties":{"kind":"building","building":"yes","name":null,"height":5}},{"type":"Feature","geometry":{"type":"Polygon","coordinates":[[[106.8192502,43.048955],[106.8194811,43.0489564],[106.8194864,43.0484624],[106.8192556,43.0484611],[106.8192502,43.048955]]]},"properties":{"kind":"building","building":"yes","name":null,"height":5}},{"type":"Feature","geometry":{"type":"Polygon","coordinates":[[[106.8196901,43.0495881],[106.8199932,43.049589],[106.8199959,43.049099],[106.8196928,43.0490981],[106.8196901,43.0495881]]]},"properties":{"kind":"building","building":"yes","name":null,"height":5}},{"type":"Feature","geometry":{"type":"Polygon","coordinates":[[[106.8192556,43.049594],[106.819556,43.049594],[106.819556,43.0490981],[106.8192556,43.0490981],[106.8192556,43.049594]]]},"properties":{"kind":"building","building":"yes","name":null,"height":5}},{"type":"Feature","geometry":{"type":"Polygon","coordinates":[[[106.8188264,43.0495901],[106.8191215,43.0495901],[106.8191215,43.0490942],[106.8188264,43.0490942],[106.8188264,43.0495901]]]},"properties":{"kind":"building","building":"yes","name":null,"height":5}},{"type":"Feature","geometry":{"type":"Polygon","coordinates":[[[106.8188184,43.0489511],[106.8190435,43.0489524],[106.8190489,43.0484703],[106.8188238,43.0484689],[106.8188184,43.0489511]]]},"properties":{"kind":"building","building":"yes","name":null,"height":5}},{"type":"Feature","geometry":{"type":"Polygon","coordinates":[[[106.8183758,43.048955],[106.8186146,43.0489557],[106.8186173,43.0484578],[106.8183785,43.0484572],[106.8183758,43.048955]]]},"properties":{"kind":"building","building":"yes","name":null,"height":5}},{"type":"Feature","geometry":{"type":"Polygon","coordinates":[[[106.817944,43.0489609],[106.8181774,43.0489636],[106.8181881,43.0484598],[106.8179547,43.0484572],[106.817944,43.0489609]]]},"properties":{"kind":"building","building":"yes","name":null,"height":5}},{"type":"Feature","geometry":{"type":"Polygon","coordinates":[[[106.8175122,43.048957],[106.8177562,43.048957],[106.8177562,43.0484591],[106.8175122,43.0484591],[106.8175122,43.048957]]]},"properties":{"kind":"building","building":"yes","name":null,"height":5}},{"type":"Feature","geometry":{"type":"Polygon","coordinates":[[[106.8183866,43.0495862],[106.8186923,43.0495862],[106.8186923,43.0490903],[106.8183866,43.0490903],[106.8183866,43.0495862]]]},"properties":{"kind":"building","building":"yes","name":null,"height":5}},{"type":"Feature","geometry":{"type":"Polygon","coordinates":[[[106.8179628,43.049594],[106.8182633,43.0495915],[106.8182552,43.0490858],[106.8179547,43.0490883],[106.8179628,43.049594]]]},"properties":{"kind":"building","building":"yes","name":null,"height":5}},{"type":"Feature","geometry":{"type":"Polygon","coordinates":[[[106.8175202,43.0496018],[106.8178153,43.0496018],[106.8178153,43.0490903],[106.8175202,43.0490903],[106.8175202,43.0496018]]]},"properties":{"kind":"building","building":"yes","name":null,"height":5}},{"type":"Feature","geometry":{"type":"Polygon","coordinates":[[[106.814315,43.0482631],[106.8147848,43.0482582],[106.8147714,43.0475722],[106.8143016,43.0475771],[106.814315,43.0482631]]]},"properties":{"kind":"building","building":"yes","name":null,"height":5}},{"type":"Feature","geometry":{"type":"Polygon","coordinates":[[[106.8207175,43.044707],[106.8209773,43.0443458],[106.821068,43.0443806],[106.8211407,43.0442796],[106.8213802,43.0443716],[106.821322,43.0444526],[106.8213537,43.0444647],[106.8210794,43.044846],[106.8207175,43.044707]]]},"properties":{"kind":"building","building":"yes","name":"Training Center","height":5}},{"type":"Feature","geometry":{"type":"Polygon","coordinates":[[[106.8573725,42.9969929],[106.857225,42.9967908],[106.8570054,42.9968766],[106.8571529,42.9970787],[106.8573725,42.9969929]]]},"properties":{"kind":"building","building":"yes","name":null,"height":5}},{"type":"Feature","geometry":{"type":"Polygon","coordinates":[[[106.8577212,42.9972126],[106.8580914,42.9970439],[106.8579538,42.9968824],[106.8575836,42.9970511],[106.8577212,42.9972126]]]},"properties":{"kind":"building","building":"industrial","name":null,"height":5}},{"type":"Feature","geometry":{"type":"Polygon","coordinates":[[[106.8989199,43.0388971],[106.8989235,43.0390542],[106.8992454,43.0390503],[106.8992418,43.0388931],[106.8989199,43.0388971]]]},"properties":{"kind":"building","building":"industrial","name":null,"height":5}},{"type":"Feature","geometry":{"type":"Polygon","coordinates":[[[106.8980375,43.0395812],[106.898354,43.0395773],[106.8983493,43.0393753],[106.8980328,43.0393793],[106.8980375,43.0395812]]]},"properties":{"kind":"building","building":"industrial","name":null,"height":5}},{"type":"Feature","geometry":{"type":"Polygon","coordinates":[[[106.8991452,43.0403203],[106.8997005,43.0403105],[106.8996909,43.0400224],[106.8991357,43.0400322],[106.8991452,43.0403203]]]},"properties":{"kind":"building","building":"industrial","name":null,"height":5}},{"type":"Feature","geometry":{"type":"Polygon","coordinates":[[[106.8980911,43.0403399],[106.8985471,43.040336],[106.8985426,43.0400539],[106.8980866,43.0400579],[106.8980911,43.0403399]]]},"properties":{"kind":"building","building":"industrial","name":null,"height":5}},{"type":"Feature","geometry":{"type":"Polygon","coordinates":[[[106.8362126,43.046793],[106.8365344,43.0467872],[106.8365304,43.0466696],[106.8362086,43.0466755],[106.8362126,43.046793]]]},"properties":{"kind":"building","building":"industrial","name":null,"height":5}},{"type":"Feature","geometry":{"type":"Polygon","coordinates":[[[106.8327823,43.0441781],[106.832851,43.0438824],[106.8331184,43.0439155],[106.8330497,43.0442112],[106.8327823,43.0441781]]]},"properties":{"kind":"building","building":"industrial","name":"Хаягдал ус","height":5}},{"type":"Feature","geometry":{"type":"Polygon","coordinates":[[[106.8327329,43.046535],[106.8326137,43.0464066],[106.8325763,43.046254],[106.8326271,43.0461033],[106.8327573,43.0459809],[106.8329444,43.0459077],[106.8331561,43.0458964],[106.8333557,43.0459491],[106.8335088,43.0460565],[106.8335888,43.0462001],[106.833582,43.0463552],[106.8334895,43.0464948],[106.8333273,43.0465948],[106.8331234,43.046638],[106.8329132,43.0466168],[106.8327329,43.046535]]]},"properties":{"kind":"building","building":"yes","name":"Хаягдал ус","height":5}},{"type":"Feature","geometry":{"type":"Polygon","coordinates":[[[106.832816,43.0467863],[106.8330012,43.0467224],[106.8332059,43.046719],[106.8333948,43.0467768],[106.8335352,43.0468858],[106.8336028,43.047027],[106.833586,43.0471762],[106.8334876,43.0473074],[106.8333247,43.0473981],[106.8331254,43.0474325],[106.8329242,43.0474047],[106.8327559,43.0473194],[106.8326495,43.0471916],[106.8326235,43.0470431],[106.8326824,43.0468998],[106.832816,43.0467863]]]},"properties":{"kind":"building","building":"yes","name":"Хаягдал ус","height":5}},{"type":"Feature","geometry":{"type":"Polygon","coordinates":[[[106.8116301,43.0297766],[106.8117177,43.0297061],[106.8110471,43.029261],[106.8109596,43.0293315],[106.8116301,43.0297766]]]},"properties":{"kind":"building","building":"industrial","name":null,"height":5}},{"type":"Feature","geometry":{"type":"Polygon","coordinates":[[[106.8110669,43.0303785],[106.8112629,43.0302208],[106.811,43.0300463],[106.810804,43.030204],[106.8110669,43.0303785]]]},"properties":{"kind":"building","building":"industrial","name":null,"height":5}},{"type":"Feature","geometry":{"type":"Polygon","coordinates":[[[106.8107667,43.0301487],[106.8105441,43.0299991],[106.8107895,43.0298039],[106.8105792,43.0296626],[106.8105234,43.0297069],[106.8104285,43.0296432],[106.8106933,43.0294326],[106.8114535,43.0299435],[106.811235,43.0301172],[106.8110027,43.0299611],[106.8107667,43.0301487]]]},"properties":{"kind":"building","building":"industrial","name":null,"height":5}},{"type":"Feature","geometry":{"type":"Polygon","coordinates":[[[106.8317065,43.0233295],[106.8318743,43.0230599],[106.8314854,43.0229305],[106.8313175,43.0232001],[106.8317065,43.0233295]]]},"properties":{"kind":"building","building":"yes","name":null,"height":5}},{"type":"Feature","geometry":{"type":"Polygon","coordinates":[[[106.8308267,43.0249943],[106.8301803,43.0247511],[106.8299743,43.0250438],[106.8306207,43.025287],[106.8308267,43.0249943]]]},"properties":{"kind":"building","building":"yes","name":null,"height":5}},{"type":"Feature","geometry":{"type":"Polygon","coordinates":[[[106.830419,43.0255766],[106.8306147,43.025294],[106.8299629,43.0250528],[106.8297672,43.0253355],[106.830419,43.0255766]]]},"properties":{"kind":"building","building":"yes","name":null,"height":5}},{"type":"Feature","geometry":{"type":"Polygon","coordinates":[[[106.8299657,43.0237334],[106.8294829,43.023553],[106.8293296,43.0237724],[106.8298124,43.0239528],[106.8299657,43.0237334]]]},"properties":{"kind":"building","building":"yes","name":null,"height":5}},{"type":"Feature","geometry":{"type":"Polygon","coordinates":[[[106.829263,43.0248472],[106.8298745,43.0239923],[106.8293241,43.0237818],[106.8287125,43.0246368],[106.829263,43.0248472]]]},"properties":{"kind":"building","building":"yes","name":null,"height":5}},{"type":"Feature","geometry":{"type":"Polygon","coordinates":[[[106.828587,43.0252158],[106.8287963,43.024906],[106.8284759,43.0247904],[106.8282667,43.0251002],[106.828587,43.0252158]]]},"properties":{"kind":"building","building":"yes","name":null,"height":5}},{"type":"Feature","geometry":{"type":"Polygon","coordinates":[[[106.8257533,43.0286776],[106.8258127,43.028676],[106.82581,43.028624],[106.8257506,43.0286256],[106.8257533,43.0286776]]]},"properties":{"kind":"building","building":"yes","name":null,"height":5}},{"type":"Feature","geometry":{"type":"Polygon","coordinates":[[[106.8259397,43.0288668],[106.8259425,43.0289392],[106.8261303,43.0289353],[106.8261275,43.0288629],[106.8259397,43.0288668]]]},"properties":{"kind":"building","building":"yes","name":null,"height":5}},{"type":"Feature","geometry":{"type":"Polygon","coordinates":[[[106.8257654,43.0290041],[106.8261355,43.0290001],[106.8261345,43.028949],[106.8257644,43.028953],[106.8257654,43.0290041]]]},"properties":{"kind":"building","building":"yes","name":null,"height":5}},{"type":"Feature","geometry":{"type":"Polygon","coordinates":[[[106.8252906,43.0294001],[106.8254676,43.0293982],[106.8254659,43.0293155],[106.8252889,43.0293175],[106.8252906,43.0294001]]]},"properties":{"kind":"building","building":"yes","name":null,"height":5}},{"type":"Feature","geometry":{"type":"Polygon","coordinates":[[[106.8269509,43.0294354],[106.8269429,43.0293688],[106.8268741,43.0293732],[106.8268822,43.0294399],[106.8269509,43.0294354]]]},"properties":{"kind":"building","building":"yes","name":null,"height":5}},{"type":"Feature","geometry":{"type":"Polygon","coordinates":[[[106.8264225,43.0294237],[106.8266773,43.0294197],[106.8266741,43.0293075],[106.8264193,43.0293115],[106.8264225,43.0294237]]]},"properties":{"kind":"building","building":"yes","name":null,"height":5}},{"type":"Feature","geometry":{"type":"Polygon","coordinates":[[[106.8257332,43.0280845],[106.8262187,43.0280766],[106.8262144,43.027937],[106.825729,43.0279449],[106.8257332,43.0280845]]]},"properties":{"kind":"building","building":"yes","name":null,"height":5}},{"type":"Feature","geometry":{"type":"Polygon","coordinates":[[[106.8257439,43.0283119],[106.8262294,43.0283041],[106.8262251,43.0281609],[106.8257396,43.0281688],[106.8257439,43.0283119]]]},"properties":{"kind":"building","building":"yes","name":null,"height":5}},{"type":"Feature","geometry":{"type":"Polygon","coordinates":[[[106.8264171,43.0283041],[106.8268329,43.0282943],[106.8268266,43.0281512],[106.8264108,43.028161],[106.8264171,43.0283041]]]},"properties":{"kind":"building","building":"yes","name":null,"height":5}},{"type":"Feature","geometry":{"type":"Polygon","coordinates":[[[106.8322885,43.0296942],[106.8324571,43.029757],[106.8326073,43.0295413],[106.8324387,43.0294786],[106.8322885,43.0296942]]]},"properties":{"kind":"building","building":"yes","name":null,"height":5}},{"type":"Feature","geometry":{"type":"Polygon","coordinates":[[[106.8318862,43.0297884],[106.8319881,43.0296393],[106.8317928,43.029568],[106.8316909,43.029717],[106.8318862,43.0297884]]]},"properties":{"kind":"building","building":"yes","name":null,"height":5}},{"type":"Feature","geometry":{"type":"Polygon","coordinates":[[[106.8296975,43.0295962],[106.8298799,43.0293295],[106.8294185,43.0291609],[106.8292361,43.0294276],[106.8296975,43.0295962]]]},"properties":{"kind":"building","building":"yes","name":null,"height":5}},{"type":"Feature","geometry":{"type":"Polygon","coordinates":[[[106.831457,43.0296354],[106.8317483,43.0292232],[106.8307827,43.0288586],[106.8304914,43.0292707],[106.831457,43.0296354]]]},"properties":{"kind":"building","building":"yes","name":null,"height":5}},{"type":"Feature","geometry":{"type":"Polygon","coordinates":[[[106.8103226,43.0305462],[106.8103905,43.030494],[106.8102805,43.0304175],[106.8102126,43.0304697],[106.8103226,43.0305462]]]},"properties":{"kind":"building","building":"yes","name":null,"height":5}},{"type":"Feature","geometry":{"type":"Polygon","coordinates":[[[106.8099967,43.0303864],[106.8100567,43.0304197],[106.8101881,43.0302932],[106.8101281,43.0302599],[106.8099967,43.0303864]]]},"properties":{"kind":"building","building":"yes","name":null,"height":5}},{"type":"Feature","geometry":{"type":"Polygon","coordinates":[[[106.8098317,43.0299854],[106.8096694,43.0298756],[106.8096013,43.0299294],[106.8097636,43.0300392],[106.8098317,43.0299854]]]},"properties":{"kind":"building","building":"yes","name":null,"height":5}},{"type":"Feature","geometry":{"type":"Polygon","coordinates":[[[106.8095273,43.0302011],[106.8097338,43.0300383],[106.8095379,43.0299055],[106.8093314,43.0300682],[106.8095273,43.0302011]]]},"properties":{"kind":"building","building":"yes","name":null,"height":5}},{"type":"Feature","geometry":{"type":"Polygon","coordinates":[[[106.8092349,43.0304765],[106.809428,43.0303158],[106.8092011,43.0301701],[106.809008,43.0303309],[106.8092349,43.0304765]]]},"properties":{"kind":"building","building":"yes","name":null,"height":5}},{"type":"Feature","geometry":{"type":"Polygon","coordinates":[[[106.8096212,43.0288139],[106.8097874,43.0289213],[106.8099912,43.0287526],[106.809825,43.0286453],[106.8096212,43.0288139]]]},"properties":{"kind":"building","building":"yes","name":null,"height":5}},{"type":"Feature","geometry":{"type":"Polygon","coordinates":[[[106.855915,43.034373],[106.8559191,43.0341061],[106.8557776,43.034105],[106.8557735,43.0343718],[106.855915,43.034373]]]},"properties":{"kind":"mineshaft","name":"Shaft #1","height":45}},{"type":"Feature","geometry":{"type":"Polygon","coordinates":[[[106.8453577,43.0380769],[106.8462257,43.0380733],[106.8462238,43.0378274],[106.8453558,43.0378309],[106.8453577,43.0380769]]]},"properties":{"kind":"mineshaft","name":"Shaft #2","height":45}},{"type":"Feature","geometry":{"type":"Polygon","coordinates":[[[106.8469339,43.0357585],[106.8474529,43.0357563],[106.8474518,43.0356093],[106.8469328,43.0356114],[106.8469339,43.0357585]]]},"properties":{"kind":"mineshaft","name":"Shaft #5","height":45}},{"type":"Feature","geometry":{"type":"Polygon","coordinates":[[[106.8223,43.0424453],[106.8223225,43.0424137],[106.8221736,43.0423569],[106.8221511,43.0423884],[106.8223,43.0424453]]]},"properties":{"kind":"building","building":"yes","name":null,"height":5}},{"type":"Feature","geometry":{"type":"Polygon","coordinates":[[[106.8223295,43.0428863],[106.8223824,43.042802],[106.8223076,43.0427769],[106.8222014,43.0427412],[106.8221484,43.0428256],[106.8222542,43.0428611],[106.8223295,43.0428863]]]},"properties":{"kind":"building","building":"yes","name":null,"height":5}},{"type":"Feature","geometry":{"type":"Polygon","coordinates":[[[106.8180674,43.0452484],[106.8181318,43.0451681],[106.8180707,43.0451419],[106.8180063,43.0452223],[106.8180674,43.0452484]]]},"properties":{"kind":"building","building":"yes","name":null,"height":5}},{"type":"Feature","geometry":{"type":"Polygon","coordinates":[[[106.8177094,43.0453543],[106.8178064,43.0452518],[106.8177415,43.045219],[106.8176445,43.0453215],[106.8177094,43.0453543]]]},"properties":{"kind":"building","building":"yes","name":null,"height":5}},{"type":"Feature","geometry":{"type":"Polygon","coordinates":[[[106.8184496,43.0449524],[106.8185464,43.0448502],[106.8184228,43.0447878],[106.8183261,43.04489],[106.8184496,43.0449524]]]},"properties":{"kind":"building","building":"yes","name":null,"height":5}},{"type":"Feature","geometry":{"type":"Polygon","coordinates":[[[106.8183566,43.0438866],[106.818435,43.0438037],[106.8183138,43.0437425],[106.8183887,43.0436632],[106.8182666,43.0436015],[106.8181132,43.0437636],[106.8183566,43.0438866]]]},"properties":{"kind":"building","building":"yes","name":null,"height":5}},{"type":"Feature","geometry":{"type":"Polygon","coordinates":[[[106.8190585,43.0437969],[106.8188158,43.0436695],[106.8187544,43.0437319],[106.8189972,43.0438593],[106.8190585,43.0437969]]]},"properties":{"kind":"building","building":"yes","name":null,"height":5}},{"type":"Feature","geometry":{"type":"Polygon","coordinates":[[[106.8188292,43.0440458],[106.8189941,43.0438753],[106.8188327,43.0437919],[106.8186678,43.0439624],[106.8188292,43.0440458]]]},"properties":{"kind":"building","building":"yes","name":null,"height":5}},{"type":"Feature","geometry":{"type":"Polygon","coordinates":[[[106.819143,43.0420767],[106.8192023,43.0420058],[106.8190092,43.0419195],[106.8189499,43.0419905],[106.819143,43.0420767]]]},"properties":{"kind":"building","building":"yes","name":null,"height":5}},{"type":"Feature","geometry":{"type":"Polygon","coordinates":[[[106.8197036,43.0423237],[106.8197557,43.0422628],[106.8193775,43.0420902],[106.8193254,43.0421512],[106.8197036,43.0423237]]]},"properties":{"kind":"building","building":"yes","name":null,"height":5}},{"type":"Feature","geometry":{"type":"Polygon","coordinates":[[[106.8198323,43.0428609],[106.8198967,43.0427726],[106.8197874,43.04273],[106.819723,43.0428183],[106.8198323,43.0428609]]]},"properties":{"kind":"building","building":"yes","name":null,"height":5}},{"type":"Feature","geometry":{"type":"Polygon","coordinates":[[[106.8183035,43.0428667],[106.8183704,43.0427915],[106.8181022,43.0426641],[106.8180352,43.0427393],[106.8183035,43.0428667]]]},"properties":{"kind":"building","building":"yes","name":null,"height":5}},{"type":"Feature","geometry":{"type":"Polygon","coordinates":[[[106.8187594,43.0431118],[106.8188273,43.0430404],[106.8185725,43.042911],[106.8185046,43.0429824],[106.8187594,43.0431118]]]},"properties":{"kind":"building","building":"yes","name":null,"height":5}},{"type":"Feature","geometry":{"type":"Polygon","coordinates":[[[106.8189901,43.0432666],[106.8191296,43.0431216],[106.8189188,43.0430133],[106.8187793,43.0431584],[106.8189901,43.0432666]]]},"properties":{"kind":"building","building":"yes","name":null,"height":5}},{"type":"Feature","geometry":{"type":"Polygon","coordinates":[[[106.8192396,43.0434195],[106.819379,43.0432804],[106.8192013,43.0431852],[106.8190618,43.0433244],[106.8192396,43.0434195]]]},"properties":{"kind":"building","building":"yes","name":null,"height":5}},{"type":"Feature","geometry":{"type":"Polygon","coordinates":[[[106.8194541,43.0435332],[106.8196499,43.0433196],[106.819577,43.0432838],[106.8193812,43.0434975],[106.8194541,43.0435332]]]},"properties":{"kind":"building","building":"yes","name":null,"height":5}},{"type":"Feature","geometry":{"type":"Polygon","coordinates":[[[106.8179145,43.0448975],[106.8179869,43.0448229],[106.8177294,43.0446896],[106.8176571,43.0447643],[106.8179145,43.0448975]]]},"properties":{"kind":"building","building":"yes","name":null,"height":5}},{"type":"Feature","geometry":{"type":"Polygon","coordinates":[[[106.8186924,43.0448583],[106.8187943,43.0447427],[106.8186625,43.0446806],[106.8185605,43.0447963],[106.8186924,43.0448583]]]},"properties":{"kind":"building","building":"yes","name":null,"height":5}},{"type":"Feature","geometry":{"type":"Polygon","coordinates":[[[106.819784,43.044778],[106.8200463,43.0448788],[106.8203205,43.0444977],[106.8200582,43.0443969],[106.819784,43.044778]]]},"properties":{"kind":"building","building":"yes","name":null,"height":5}},{"type":"Feature","geometry":{"type":"Polygon","coordinates":[[[106.8196687,43.0454699],[106.8199924,43.04502],[106.8196687,43.0448956],[106.819345,43.0453455],[106.8196687,43.0454699]]]},"properties":{"kind":"building","building":"yes","name":null,"height":5}},{"type":"Feature","geometry":{"type":"Polygon","coordinates":[[[106.8208221,43.045415],[106.8208902,43.0453203],[106.8207617,43.045271],[106.8206936,43.0453657],[106.8208221,43.045415]]]},"properties":{"kind":"building","building":"yes","name":null,"height":5}},{"type":"Feature","geometry":{"type":"Polygon","coordinates":[[[106.8202829,43.0452857],[106.8206365,43.0454215],[106.8209937,43.044925],[106.8206401,43.0447891],[106.8202829,43.0452857]]]},"properties":{"kind":"building","building":"yes","name":null,"height":5}},{"type":"Feature","geometry":{"type":"Polygon","coordinates":[[[106.8208301,43.0475947],[106.8209637,43.0475905],[106.8209503,43.0473651],[106.8208167,43.0473693],[106.8208301,43.0475947]]]},"properties":{"kind":"building","building":"yes","name":null,"height":5}},{"type":"Feature","geometry":{"type":"Polygon","coordinates":[[[106.822078,43.0495382],[106.8221231,43.0495373],[106.8221218,43.0495015],[106.8220767,43.0495024],[106.822078,43.0495382]]]},"properties":{"kind":"building","building":"yes","name":null,"height":5}},{"type":"Feature","geometry":{"type":"Polygon","coordinates":[[[106.8220841,43.0493118],[106.822141,43.0493123],[106.8221416,43.0492721],[106.8220848,43.0492716],[106.8220841,43.0493118]]]},"properties":{"kind":"building","building":"yes","name":null,"height":5}},{"type":"Feature","geometry":{"type":"Polygon","coordinates":[[[106.8217427,43.049545],[106.821956,43.049545],[106.821956,43.0495045],[106.8217427,43.0495045],[106.8217427,43.049545]]]},"properties":{"kind":"building","building":"yes","name":null,"height":5}},{"type":"Feature","geometry":{"type":"Polygon","coordinates":[[[106.8234345,43.0499527],[106.8234371,43.0500575],[106.8235873,43.0500555],[106.8235847,43.0499508],[106.8234345,43.0499527]]]},"properties":{"kind":"building","building":"yes","name":null,"height":5}},{"type":"Feature","geometry":{"type":"Polygon","coordinates":[[[106.8234386,43.0502281],[106.8241896,43.0502183],[106.8241855,43.0500502],[106.8234344,43.05006],[106.8234386,43.0502281]]]},"properties":{"kind":"building","building":"yes","name":null,"height":5}},{"type":"Feature","geometry":{"type":"Polygon","coordinates":[[[106.823578,43.0503643],[106.8237068,43.0503624],[106.8237049,43.0502977],[106.8235762,43.0502996],[106.823578,43.0503643]]]},"properties":{"kind":"building","building":"yes","name":null,"height":5}},{"type":"Feature","geometry":{"type":"Polygon","coordinates":[[[106.8218279,43.05038],[106.8220572,43.050379],[106.8220558,43.0502114],[106.8218265,43.0502124],[106.8218279,43.05038]]]},"properties":{"kind":"building","building":"yes","name":null,"height":5}},{"type":"Feature","geometry":{"type":"Polygon","coordinates":[[[106.8214779,43.0503849],[106.8217448,43.0503817],[106.8217408,43.0502053],[106.8214738,43.0502085],[106.8214779,43.0503849]]]},"properties":{"kind":"building","building":"yes","name":null,"height":5}},{"type":"Feature","geometry":{"type":"Polygon","coordinates":[[[106.8186213,43.0499566],[106.818856,43.0499557],[106.8188549,43.0498115],[106.8186202,43.0498125],[106.8186213,43.0499566]]]},"properties":{"kind":"building","building":"yes","name":null,"height":5}},{"type":"Feature","geometry":{"type":"Polygon","coordinates":[[[106.8167035,43.0499292],[106.8169034,43.0499282],[106.8169027,43.0498596],[106.8167029,43.0498606],[106.8167035,43.0499292]]]},"properties":{"kind":"building","building":"yes","name":null,"height":5}},{"type":"Feature","geometry":{"type":"Polygon","coordinates":[[[106.8163776,43.0482563],[106.8164458,43.0482538],[106.8164364,43.0481127],[106.8163683,43.0481151],[106.8163776,43.0482563]]]},"properties":{"kind":"building","building":"yes","name":null,"height":5}},{"type":"Feature","geometry":{"type":"Polygon","coordinates":[[[106.817183,43.0475006],[106.8173312,43.0474757],[106.8173193,43.047438],[106.8171711,43.047463],[106.817183,43.0475006]]]},"properties":{"kind":"building","building":"yes","name":null,"height":5}},{"type":"Feature","geometry":{"type":"Polygon","coordinates":[[[106.8170891,43.0474732],[106.8171924,43.0474565],[106.8171357,43.047269],[106.8170324,43.0472857],[106.8170891,43.0474732]]]},"properties":{"kind":"building","building":"yes","name":null,"height":5}},{"type":"Feature","geometry":{"type":"Polygon","coordinates":[[[106.8173097,43.0474232],[106.817424,43.047404],[106.8173637,43.0472119],[106.8172494,43.0472311],[106.8173097,43.0474232]]]},"properties":{"kind":"building","building":"yes","name":null,"height":5}},{"type":"Feature","geometry":{"type":"Polygon","coordinates":[[[106.8172064,43.0474418],[106.8172872,43.047427],[106.8172228,43.0472398],[106.8171421,43.0472547],[106.8172064,43.0474418]]]},"properties":{"kind":"building","building":"yes","name":null,"height":5}},{"type":"Feature","geometry":{"type":"Polygon","coordinates":[[[106.8169664,43.0474928],[106.8170759,43.0474747],[106.8170143,43.0472757],[106.8169047,43.0472939],[106.8169664,43.0474928]]]},"properties":{"kind":"building","building":"yes","name":null,"height":5}},{"type":"Feature","geometry":{"type":"Polygon","coordinates":[[[106.8164715,43.0462285],[106.816446,43.0461197],[106.8164019,43.0461252],[106.8164274,43.046234],[106.8164715,43.0462285]]]},"properties":{"kind":"building","building":"yes","name":null,"height":5}},{"type":"Feature","geometry":{"type":"Polygon","coordinates":[[[106.8151063,43.0467509],[106.8151566,43.0467061],[106.8150668,43.0466521],[106.8150164,43.046697],[106.8151063,43.0467509]]]},"properties":{"kind":"building","building":"yes","name":null,"height":5}},{"type":"Feature","geometry":{"type":"Polygon","coordinates":[[[106.8151747,43.0466833],[106.8152685,43.046599],[106.8151784,43.0465454],[106.8150845,43.0466296],[106.8151747,43.0466833]]]},"properties":{"kind":"building","building":"yes","name":null,"height":5}},{"type":"Feature","geometry":{"type":"Polygon","coordinates":[[[106.8151961,43.0470165],[106.8152596,43.0470073],[106.8152341,43.0469132],[106.8151706,43.0469224],[106.8151961,43.0470165]]]},"properties":{"kind":"building","building":"yes","name":null,"height":5}},{"type":"Feature","geometry":{"type":"Polygon","coordinates":[[[106.8144411,43.0470812],[106.814443,43.0471468],[106.8146361,43.0471439],[106.8146342,43.0470782],[106.8144411,43.0470812]]]},"properties":{"kind":"building","building":"yes","name":null,"height":5}},{"type":"Feature","geometry":{"type":"Polygon","coordinates":[[[106.8161067,43.0469636],[106.8165413,43.046893],[106.8164846,43.0467066],[106.8160501,43.0467772],[106.8161067,43.0469636]]]},"properties":{"kind":"building","building":"yes","name":null,"height":5}},{"type":"Feature","geometry":{"type":"Polygon","coordinates":[[[106.816155,43.047632],[106.8162994,43.0476094],[106.8162404,43.0474075],[106.816096,43.0474301],[106.816155,43.047632]]]},"properties":{"kind":"building","building":"yes","name":null,"height":5}},{"type":"Feature","geometry":{"type":"Polygon","coordinates":[[[106.8159914,43.0479907],[106.8161207,43.047971],[106.8160644,43.0477731],[106.8159351,43.0477927],[106.8159914,43.0479907]]]},"properties":{"kind":"building","building":"yes","name":null,"height":5}},{"type":"Feature","geometry":{"type":"Polygon","coordinates":[[[106.8164501,43.0479417],[106.8164625,43.0482845],[106.8169694,43.0482747],[106.816957,43.0479319],[106.8164501,43.0479417]]]},"properties":{"kind":"building","building":"yes","name":null,"height":5}},{"type":"Feature","geometry":{"type":"Polygon","coordinates":[[[106.8160228,43.0492687],[106.8162453,43.0492685],[106.8162441,43.0485667],[106.8160216,43.0485669],[106.8160228,43.0492687]]]},"properties":{"kind":"building","building":"yes","name":null,"height":5}},{"type":"Feature","geometry":{"type":"Polygon","coordinates":[[[106.8160075,43.050049],[106.8162516,43.0500485],[106.8162489,43.0493664],[106.8160048,43.0493669],[106.8160075,43.050049]]]},"properties":{"kind":"building","building":"yes","name":null,"height":5}},{"type":"Feature","geometry":{"type":"Polygon","coordinates":[[[106.8156849,43.0492648],[106.8159073,43.0492646],[106.8159061,43.0485628],[106.8156837,43.048563],[106.8156849,43.0492648]]]},"properties":{"kind":"building","building":"yes","name":null,"height":5}},{"type":"Feature","geometry":{"type":"Polygon","coordinates":[[[106.8156696,43.0500451],[106.8159136,43.0500446],[106.8159109,43.0493625],[106.8156669,43.049363],[106.8156696,43.0500451]]]},"properties":{"kind":"building","building":"yes","name":null,"height":5}},{"type":"Feature","geometry":{"type":"Polygon","coordinates":[[[106.8153416,43.0492609],[106.815564,43.0492607],[106.8155628,43.0485588],[106.8153404,43.048559],[106.8153416,43.0492609]]]},"properties":{"kind":"building","building":"yes","name":null,"height":5}},{"type":"Feature","geometry":{"type":"Polygon","coordinates":[[[106.8153262,43.0500412],[106.8155703,43.0500407],[106.8155676,43.0493586],[106.8153235,43.0493591],[106.8153262,43.0500412]]]},"properties":{"kind":"building","building":"yes","name":null,"height":5}},{"type":"Feature","geometry":{"type":"Polygon","coordinates":[[[106.8149956,43.0492609],[106.815218,43.0492607],[106.8152168,43.0485588],[106.8149944,43.048559],[106.8149956,43.0492609]]]},"properties":{"kind":"building","building":"yes","name":null,"height":5}},{"type":"Feature","geometry":{"type":"Polygon","coordinates":[[[106.8149802,43.0500412],[106.8152243,43.0500407],[106.8152216,43.0493586],[106.8149775,43.0493591],[106.8149802,43.0500412]]]},"properties":{"kind":"building","building":"yes","name":null,"height":5}},{"type":"Feature","geometry":{"type":"Polygon","coordinates":[[[106.8146469,43.0492589],[106.8148693,43.0492587],[106.8148681,43.0485569],[106.8146457,43.0485571],[106.8146469,43.0492589]]]},"properties":{"kind":"building","building":"yes","name":null,"height":5}},{"type":"Feature","geometry":{"type":"Polygon","coordinates":[[[106.8146315,43.0500392],[106.8148756,43.0500387],[106.8148729,43.0493566],[106.8146289,43.0493571],[106.8146315,43.0500392]]]},"properties":{"kind":"building","building":"yes","name":null,"height":5}},{"type":"Feature","geometry":{"type":"Polygon","coordinates":[[[106.8143062,43.0492609],[106.8145287,43.0492607],[106.8145275,43.0485588],[106.814305,43.048559],[106.8143062,43.0492609]]]},"properties":{"kind":"building","building":"yes","name":null,"height":5}},{"type":"Feature","geometry":{"type":"Polygon","coordinates":[[[106.8142909,43.0500412],[106.8145349,43.0500407],[106.8145323,43.0493586],[106.8142882,43.0493591],[106.8142909,43.0500412]]]},"properties":{"kind":"building","building":"yes","name":null,"height":5}},{"type":"Feature","geometry":{"type":"Polygon","coordinates":[[[106.8139575,43.0492628],[106.81418,43.0492626],[106.8141788,43.0485608],[106.8139563,43.048561],[106.8139575,43.0492628]]]},"properties":{"kind":"building","building":"yes","name":null,"height":5}},{"type":"Feature","geometry":{"type":"Polygon","coordinates":[[[106.8139422,43.0500431],[106.8141863,43.0500426],[106.8141836,43.0493605],[106.8139395,43.049361],[106.8139422,43.0500431]]]},"properties":{"kind":"building","building":"yes","name":null,"height":5}},{"type":"Feature","geometry":{"type":"Polygon","coordinates":[[[106.8136196,43.0492707],[106.813842,43.0492705],[106.8138408,43.0485686],[106.8136184,43.0485688],[106.8136196,43.0492707]]]},"properties":{"kind":"building","building":"yes","name":null,"height":5}},{"type":"Feature","geometry":{"type":"Polygon","coordinates":[[[106.8136043,43.050051],[106.8138483,43.0500505],[106.8138456,43.0493684],[106.8136016,43.0493689],[106.8136043,43.050051]]]},"properties":{"kind":"building","building":"yes","name":null,"height":5}},{"type":"Feature","geometry":{"type":"Polygon","coordinates":[[[106.8132601,43.0492685],[106.8134826,43.0492683],[106.8134814,43.0485664],[106.8132589,43.0485666],[106.8132601,43.0492685]]]},"properties":{"kind":"building","building":"yes","name":null,"height":5}},{"type":"Feature","geometry":{"type":"Polygon","coordinates":[[[106.8132448,43.0500488],[106.8134889,43.0500482],[106.8134862,43.0493661],[106.8132421,43.0493667],[106.8132448,43.0500488]]]},"properties":{"kind":"building","building":"yes","name":null,"height":5}},{"type":"Feature","geometry":{"type":"Polygon","coordinates":[[[106.811775,43.0158188],[106.8119064,43.0158149],[106.8119017,43.0157304],[106.8117702,43.0157343],[106.811775,43.0158188]]]},"properties":{"kind":"building","building":"yes","name":null,"height":5}},{"type":"Feature","geometry":{"type":"Polygon","coordinates":[[[106.8029425,43.0191036],[106.8034226,43.0187526],[106.8033019,43.0186643],[106.8028218,43.0190154],[106.8029425,43.0191036]]]},"properties":{"kind":"building","building":"yes","name":null,"height":5}},{"type":"Feature","geometry":{"type":"Polygon","coordinates":[[[106.8031087,43.0192252],[106.8035674,43.0188683],[106.8034611,43.0187952],[106.8030024,43.0191521],[106.8031087,43.0192252]]]},"properties":{"kind":"building","building":"yes","name":null,"height":5}},{"type":"Feature","geometry":{"type":"Polygon","coordinates":[[[106.8032777,43.0193448],[106.8037337,43.018982],[106.8036214,43.0189066],[106.8031654,43.0192693],[106.8032777,43.0193448]]]},"properties":{"kind":"building","building":"yes","name":null,"height":5}},{"type":"Feature","geometry":{"type":"Polygon","coordinates":[[[106.8035835,43.0194723],[106.8039831,43.0191683],[106.8038007,43.0190401],[106.8034011,43.0193441],[106.8035835,43.0194723]]]},"properties":{"kind":"building","building":"yes","name":null,"height":5}},{"type":"Feature","geometry":{"type":"Polygon","coordinates":[[[106.8602881,43.0341194],[106.8603898,43.0341172],[106.8603818,43.0339172],[106.86028,43.0339194],[106.8602881,43.0341194]]]},"properties":{"kind":"building","building":"yes","name":null,"height":5}},{"type":"Feature","geometry":{"type":"Polygon","coordinates":[[[106.8598831,43.032745],[106.8600467,43.032745],[106.8600467,43.0326313],[106.8598831,43.0326313],[106.8598831,43.032745]]]},"properties":{"kind":"building","building":"yes","name":null,"height":5}},{"type":"Feature","geometry":{"type":"Polygon","coordinates":[[[106.8602988,43.0333155],[106.8604356,43.0333155],[106.8604356,43.0331136],[106.8602988,43.0331136],[106.8602988,43.0333155]]]},"properties":{"kind":"building","building":"yes","name":null,"height":5}},{"type":"Feature","geometry":{"type":"Polygon","coordinates":[[[106.8604276,43.0335351],[106.8606262,43.0335323],[106.8606235,43.0334323],[106.8604249,43.0334351],[106.8604276,43.0335351]]]},"properties":{"kind":"building","building":"yes","name":null,"height":5}},{"type":"Feature","geometry":{"type":"Polygon","coordinates":[[[106.8601379,43.0335488],[106.8603365,43.0335462],[106.8603339,43.0334403],[106.8601352,43.033443],[106.8601379,43.0335488]]]},"properties":{"kind":"building","building":"yes","name":null,"height":5}},{"type":"Feature","geometry":{"type":"Polygon","coordinates":[[[106.8604891,43.0327421],[106.8606342,43.0327381],[106.8606289,43.0326342],[106.8604837,43.0326382],[106.8604891,43.0327421]]]},"properties":{"kind":"building","building":"yes","name":null,"height":5}},{"type":"Feature","geometry":{"type":"Polygon","coordinates":[[[106.8603228,43.0327441],[106.8604679,43.0327401],[106.8604626,43.0326361],[106.8603174,43.0326402],[106.8603228,43.0327441]]]},"properties":{"kind":"building","building":"yes","name":null,"height":5}},{"type":"Feature","geometry":{"type":"Polygon","coordinates":[[[106.8601674,43.032743],[106.8603125,43.032739],[106.8603072,43.0326351],[106.860162,43.0326391],[106.8601674,43.032743]]]},"properties":{"kind":"building","building":"yes","name":null,"height":5}},{"type":"Feature","geometry":{"type":"Polygon","coordinates":[[[106.847966,43.0490746],[106.8480927,43.0490064],[106.8480176,43.0489319],[106.8478909,43.0490001],[106.847966,43.0490746]]]},"properties":{"kind":"building","building":"yes","name":null,"height":5}},{"type":"Feature","geometry":{"type":"Polygon","coordinates":[[[106.8455654,43.0492275],[106.8456659,43.0492272],[106.8456646,43.0489714],[106.8455641,43.0489717],[106.8455654,43.0492275]]]},"properties":{"kind":"building","building":"yes","name":null,"height":5}},{"type":"Feature","geometry":{"type":"Polygon","coordinates":[[[106.8455413,43.0494931],[106.8457436,43.04949],[106.8457382,43.0493038],[106.8455359,43.0493069],[106.8455413,43.0494931]]]},"properties":{"kind":"building","building":"yes","name":null,"height":5}},{"type":"Feature","geometry":{"type":"Polygon","coordinates":[[[106.8459181,43.0494304],[106.8461581,43.0494286],[106.8461554,43.0492345],[106.8459155,43.0492363],[106.8459181,43.0494304]]]},"properties":{"kind":"building","building":"yes","name":null,"height":5}},{"type":"Feature","geometry":{"type":"Polygon","coordinates":[[[106.8459409,43.0499076],[106.8462467,43.0499096],[106.8462486,43.0497519],[106.8459428,43.0497499],[106.8459409,43.0499076]]]},"properties":{"kind":"building","building":"yes","name":null,"height":5}},{"type":"Feature","geometry":{"type":"Polygon","coordinates":[[[106.8460026,43.049741],[106.8462788,43.0497395],[106.8462761,43.0494808],[106.846,43.0494823],[106.8460026,43.049741]]]},"properties":{"kind":"building","building":"yes","name":null,"height":5}},{"type":"Feature","geometry":{"type":"Polygon","coordinates":[[[106.8472043,43.0497195],[106.8474729,43.0497121],[106.8474595,43.0494514],[106.8471909,43.0494588],[106.8472043,43.0497195]]]},"properties":{"kind":"building","building":"yes","name":null,"height":5}},{"type":"Feature","geometry":{"type":"Polygon","coordinates":[[[106.8376154,43.0259394],[106.8376851,43.0258668],[106.837622,43.0258344],[106.8375523,43.025907],[106.8376154,43.0259394]]]},"properties":{"kind":"building","building":"yes","name":null,"height":5}},{"type":"Feature","geometry":{"type":"Polygon","coordinates":[[[106.8380123,43.0255629],[106.838054,43.0255087],[106.8379682,43.0254734],[106.8379265,43.0255276],[106.8380123,43.0255629]]]},"properties":{"kind":"building","building":"yes","name":null,"height":5}},{"type":"Feature","geometry":{"type":"Polygon","coordinates":[[[106.8377012,43.0239629],[106.8377978,43.0238315],[106.8377365,43.0238074],[106.8376399,43.0239388],[106.8377012,43.0239629]]]},"properties":{"kind":"building","building":"yes","name":null,"height":5}},{"type":"Feature","geometry":{"type":"Polygon","coordinates":[[[106.8376636,43.0249511],[106.8377576,43.024836],[106.8374385,43.0246967],[106.8373445,43.0248119],[106.8376636,43.0249511]]]},"properties":{"kind":"building","building":"yes","name":null,"height":5}},{"type":"Feature","geometry":{"type":"Polygon","coordinates":[[[106.8381169,43.0247805],[106.837559,43.0245433],[106.8374536,43.0246758],[106.8380115,43.024913],[106.8381169,43.0247805]]]},"properties":{"kind":"building","building":"yes","name":null,"height":5}},{"type":"Feature","geometry":{"type":"Polygon","coordinates":[[[106.8377629,43.0252002],[106.8379909,43.0249158],[106.8377937,43.0248313],[106.8375657,43.0251156],[106.8377629,43.0252002]]]},"properties":{"kind":"building","building":"yes","name":null,"height":5}},{"type":"Feature","geometry":{"type":"Polygon","coordinates":[[[106.8375376,43.025106],[106.837651,43.0249586],[106.8373936,43.0248527],[106.8372801,43.0250002],[106.8375376,43.025106]]]},"properties":{"kind":"building","building":"yes","name":null,"height":5}},{"type":"Feature","geometry":{"type":"Polygon","coordinates":[[[106.8367597,43.0253609],[106.8368804,43.0252257],[106.8367349,43.0251563],[106.8366142,43.0252916],[106.8367597,43.0253609]]]},"properties":{"kind":"building","building":"yes","name":null,"height":5}},{"type":"Feature","geometry":{"type":"Polygon","coordinates":[[[106.8372372,43.0255355],[106.8372951,43.025481],[106.8371744,43.0254124],[106.8371165,43.0254668],[106.8372372,43.0255355]]]},"properties":{"kind":"building","building":"yes","name":null,"height":5}},{"type":"Feature","geometry":{"type":"Polygon","coordinates":[[[106.8369609,43.0254649],[106.837014,43.0254082],[106.8368692,43.0253357],[106.8368161,43.0253923],[106.8369609,43.0254649]]]},"properties":{"kind":"building","building":"yes","name":null,"height":5}},{"type":"Feature","geometry":{"type":"Polygon","coordinates":[[[106.8369287,43.0256708],[106.8369873,43.0256065],[106.8365126,43.0253751],[106.836454,43.0254394],[106.8369287,43.0256708]]]},"properties":{"kind":"building","building":"yes","name":null,"height":5}},{"type":"Feature","geometry":{"type":"Polygon","coordinates":[[[106.8362313,43.0245648],[106.8364744,43.0246625],[106.8368606,43.0241488],[106.8366176,43.0240511],[106.8362313,43.0245648]]]},"properties":{"kind":"building","building":"yes","name":null,"height":5}},{"type":"Feature","geometry":{"type":"Polygon","coordinates":[[[106.8369824,43.0240766],[106.8370486,43.023994],[106.836893,43.0239273],[106.8368268,43.0240099],[106.8369824,43.0240766]]]},"properties":{"kind":"building","building":"yes","name":null,"height":5}},{"type":"Feature","geometry":{"type":"Polygon","coordinates":[[[106.8375885,43.0239531],[106.8376926,43.0238211],[106.8373761,43.0236877],[106.837272,43.0238197],[106.8375885,43.0239531]]]},"properties":{"kind":"building","building":"yes","name":null,"height":5}},{"type":"Feature","geometry":{"type":"Polygon","coordinates":[[[106.8344584,43.0226961],[106.8345684,43.0225647],[106.8344848,43.0225273],[106.8343748,43.0226587],[106.8344584,43.0226961]]]},"properties":{"kind":"building","building":"yes","name":null,"height":5}},{"type":"Feature","geometry":{"type":"Polygon","coordinates":[[[106.8344048,43.0228],[106.8344665,43.0227314],[106.8343477,43.0226744],[106.8342861,43.022743],[106.8344048,43.0228]]]},"properties":{"kind":"building","building":"yes","name":null,"height":5}},{"type":"Feature","geometry":{"type":"Polygon","coordinates":[[[106.8342116,43.0229079],[106.8343104,43.0227966],[106.8341575,43.0227241],[106.8340588,43.0228353],[106.8342116,43.0229079]]]},"properties":{"kind":"building","building":"yes","name":null,"height":5}},{"type":"Feature","geometry":{"type":"Polygon","coordinates":[[[106.8340614,43.0231138],[106.8341792,43.0229894],[106.8340049,43.0229012],[106.8338871,43.0230256],[106.8340614,43.0231138]]]},"properties":{"kind":"building","building":"yes","name":null,"height":5}},{"type":"Feature","geometry":{"type":"Polygon","coordinates":[[[106.8311915,43.0213137],[106.8312541,43.0212442],[106.8309161,43.0210814],[106.8308535,43.0211509],[106.8311915,43.0213137]]]},"properties":{"kind":"building","building":"yes","name":null,"height":5}},{"type":"Feature","geometry":{"type":"Polygon","coordinates":[[[106.8344799,43.0197566],[106.8346185,43.0197443],[106.8345971,43.0196149],[106.8344584,43.0196272],[106.8344799,43.0197566]]]},"properties":{"kind":"building","building":"yes","name":null,"height":5}},{"type":"Feature","geometry":{"type":"Polygon","coordinates":[[[106.8351853,43.0199959],[106.8352792,43.0199017],[106.8351737,43.0198455],[106.8350798,43.0199396],[106.8351853,43.0199959]]]},"properties":{"kind":"building","building":"yes","name":null,"height":5}},{"type":"Feature","geometry":{"type":"Polygon","coordinates":[[[106.8323261,43.0204214],[106.8323834,43.0203585],[106.8322708,43.0203036],[106.8322134,43.0203665],[106.8323261,43.0204214]]]},"properties":{"kind":"building","building":"yes","name":null,"height":5}},{"type":"Feature","geometry":{"type":"Polygon","coordinates":[[[106.8328759,43.0202704],[106.8329516,43.0201906],[106.8328202,43.0201239],[106.8327445,43.0202037],[106.8328759,43.0202704]]]},"properties":{"kind":"building","building":"yes","name":null,"height":5}},{"type":"Feature","geometry":{"type":"Polygon","coordinates":[[[106.8335357,43.0200253],[106.8337128,43.0198096],[106.8335617,43.0197433],[106.8333847,43.019959],[106.8335357,43.0200253]]]},"properties":{"kind":"building","building":"yes","name":null,"height":5}},{"type":"Feature","geometry":{"type":"Polygon","coordinates":[[[106.836049,43.0427707],[106.8371433,43.0427628],[106.8371419,43.0426568],[106.8360475,43.0426646],[106.836049,43.0427707]]]},"properties":{"kind":"building","building":"yes","name":null,"height":5}},{"type":"Feature","geometry":{"type":"Polygon","coordinates":[[[106.8377227,43.0428373],[106.8379533,43.0428334],[106.8379509,43.0427565],[106.8377202,43.0427604],[106.8377227,43.0428373]]]},"properties":{"kind":"building","building":"yes","name":null,"height":5}},{"type":"Feature","geometry":{"type":"Polygon","coordinates":[[[106.8402278,43.0404752],[106.8402278,43.040534],[106.8403995,43.040534],[106.8403995,43.0404752],[106.8402278,43.0404752]]]},"properties":{"kind":"building","building":"yes","name":null,"height":5}},{"type":"Feature","geometry":{"type":"Polygon","coordinates":[[[106.8400079,43.0400988],[106.8402305,43.0400968],[106.8402279,43.03994],[106.8400053,43.0399419],[106.8400079,43.0400988]]]},"properties":{"kind":"building","building":"yes","name":null,"height":5}},{"type":"Feature","geometry":{"type":"Polygon","coordinates":[[[106.8445703,43.0342899],[106.8446832,43.0342888],[106.8446805,43.0341476],[106.8445677,43.0341488],[106.8445703,43.0342899]]]},"properties":{"kind":"building","building":"yes","name":null,"height":5}},{"type":"Feature","geometry":{"type":"Polygon","coordinates":[[[106.8449834,43.033888],[106.8452007,43.033888],[106.8452007,43.0336626],[106.8449834,43.0336626],[106.8449834,43.033888]]]},"properties":{"kind":"building","building":"yes","name":null,"height":5}},{"type":"Feature","geometry":{"type":"Polygon","coordinates":[[[106.843653,43.0355015],[106.8438414,43.0354989],[106.8438361,43.0352911],[106.8436477,43.0352937],[106.843653,43.0355015]]]},"properties":{"kind":"building","building":"yes","name":null,"height":5}},{"type":"Feature","geometry":{"type":"Polygon","coordinates":[[[106.8438354,43.0352663],[106.8441147,43.0352617],[106.8441067,43.0349971],[106.8438274,43.0350016],[106.8438354,43.0352663]]]},"properties":{"kind":"building","building":"yes","name":null,"height":5}},{"type":"Feature","geometry":{"type":"Polygon","coordinates":[[[106.8450344,43.0352369],[106.8453105,43.0352384],[106.8453132,43.0349796],[106.845037,43.0349781],[106.8450344,43.0352369]]]},"properties":{"kind":"building","building":"yes","name":null,"height":5}},{"type":"Feature","geometry":{"type":"Polygon","coordinates":[[[106.8453535,43.0355113],[106.8456057,43.0355055],[106.8455978,43.0353255],[106.8453457,43.0353314],[106.8453535,43.0355113]]]},"properties":{"kind":"building","building":"yes","name":null,"height":5}},{"type":"Feature","geometry":{"type":"Polygon","coordinates":[[[106.8469629,43.0352976],[106.8469657,43.035339],[106.8471266,43.0353331],[106.8471238,43.0352918],[106.8469629,43.0352976]]]},"properties":{"kind":"building","building":"yes","name":null,"height":5}},{"type":"Feature","geometry":{"type":"Polygon","coordinates":[[[106.8474162,43.0353525],[106.8475606,43.0353547],[106.8475633,43.0352606],[106.8474188,43.0352584],[106.8474162,43.0353525]]]},"properties":{"kind":"building","building":"yes","name":null,"height":5}},{"type":"Feature","geometry":{"type":"Polygon","coordinates":[[[106.8471613,43.0353427],[106.8473543,43.0353446],[106.8473569,43.0351956],[106.847164,43.0351937],[106.8471613,43.0353427]]]},"properties":{"kind":"building","building":"yes","name":null,"height":5}},{"type":"Feature","geometry":{"type":"Polygon","coordinates":[[[106.8479231,43.036668],[106.8480545,43.036668],[106.8480545,43.0365171],[106.8479231,43.0365171],[106.8479231,43.036668]]]},"properties":{"kind":"building","building":"yes","name":null,"height":5}},{"type":"Feature","geometry":{"type":"Polygon","coordinates":[[[106.8498999,43.0389951],[106.8501173,43.0389917],[106.8501039,43.0385271],[106.8498865,43.0385305],[106.8498999,43.0389951]]]},"properties":{"kind":"building","building":"yes","name":null,"height":5}},{"type":"Feature","geometry":{"type":"Polygon","coordinates":[[[106.8485481,43.0391127],[106.8486315,43.0391105],[106.8486261,43.0390027],[106.8485427,43.0390049],[106.8485481,43.0391127]]]},"properties":{"kind":"building","building":"yes","name":null,"height":5}},{"type":"Feature","geometry":{"type":"Polygon","coordinates":[[[106.8488833,43.0392362],[106.8490031,43.0392389],[106.8490084,43.0391135],[106.8488887,43.0391107],[106.8488833,43.0392362]]]},"properties":{"kind":"building","building":"yes","name":null,"height":5}},{"type":"Feature","geometry":{"type":"Polygon","coordinates":[[[106.8494841,43.0394205],[106.8494815,43.0392793],[106.849345,43.0392807],[106.8493476,43.0394219],[106.8494841,43.0394205]]]},"properties":{"kind":"building","building":"yes","name":null,"height":5}},{"type":"Feature","geometry":{"type":"Polygon","coordinates":[[[106.8499562,43.0381913],[106.8500982,43.0381869],[106.8500821,43.0379085],[106.8499401,43.0379129],[106.8499562,43.0381913]]]},"properties":{"kind":"building","building":"yes","name":null,"height":5}},{"type":"Feature","geometry":{"type":"Polygon","coordinates":[[[106.8510908,43.0381344],[106.8514341,43.0381286],[106.8514295,43.0379849],[106.8510862,43.0379908],[106.8510908,43.0381344]]]},"properties":{"kind":"building","building":"yes","name":null,"height":5}},{"type":"Feature","geometry":{"type":"Polygon","coordinates":[[[106.8503371,43.0383619],[106.8510613,43.038354],[106.8510542,43.0380032],[106.85033,43.038011],[106.8503371,43.0383619]]]},"properties":{"kind":"building","building":"yes","name":null,"height":5}},{"type":"Feature","geometry":{"type":"Polygon","coordinates":[[[106.8502218,43.0392166],[106.8507528,43.0392107],[106.8507495,43.0390518],[106.8502185,43.0390577],[106.8502218,43.0392166]]]},"properties":{"kind":"building","building":"yes","name":null,"height":5}},{"type":"Feature","geometry":{"type":"Polygon","coordinates":[[[106.843476,43.0385265],[106.8441653,43.0385265],[106.8441653,43.0384481],[106.843476,43.0384481],[106.843476,43.0385265]]]},"properties":{"kind":"building","building":"yes","name":null,"height":5}},{"type":"Feature","geometry":{"type":"Polygon","coordinates":[[[106.8432078,43.0388284],[106.8441921,43.0388147],[106.8441901,43.0387345],[106.8432057,43.0387482],[106.8432078,43.0388284]]]},"properties":{"kind":"building","building":"yes","name":null,"height":5}},{"type":"Feature","geometry":{"type":"Polygon","coordinates":[[[106.8454635,43.0395636],[106.8457374,43.0396188],[106.8458528,43.039313],[106.8455788,43.0392578],[106.8454635,43.0395636]]]},"properties":{"kind":"building","building":"yes","name":null,"height":5}},{"type":"Feature","geometry":{"type":"Polygon","coordinates":[[[106.8463621,43.0395557],[106.8462333,43.039244],[106.8459942,43.0392968],[106.846123,43.0396085],[106.8463621,43.0395557]]]},"properties":{"kind":"building","building":"yes","name":null,"height":5}},{"type":"Feature","geometry":{"type":"Polygon","coordinates":[[[106.8447863,43.038406],[106.844907,43.0384069],[106.8449078,43.0383492],[106.8447871,43.0383483],[106.8447863,43.038406]]]},"properties":{"kind":"building","building":"yes","name":null,"height":5}},{"type":"Feature","geometry":{"type":"Polygon","coordinates":[[[106.8449257,43.0385197],[106.8451729,43.0385142],[106.8451662,43.0383525],[106.844919,43.0383579],[106.8449257,43.0385197]]]},"properties":{"kind":"building","building":"yes","name":null,"height":5}},{"type":"Feature","geometry":{"type":"Polygon","coordinates":[[[106.8448104,43.0382256],[106.8450451,43.0382246],[106.845044,43.0380864],[106.8448093,43.0380874],[106.8448104,43.0382256]]]},"properties":{"kind":"building","building":"yes","name":null,"height":5}},{"type":"Feature","geometry":{"type":"Polygon","coordinates":[[[106.8451913,43.03806],[106.8452717,43.0380609],[106.8452731,43.0380004],[106.8451927,43.0379994],[106.8451913,43.03806]]]},"properties":{"kind":"building","building":"yes","name":null,"height":5}},{"type":"Feature","geometry":{"type":"Polygon","coordinates":[[[106.8453281,43.037614],[106.8455614,43.0376159],[106.8455627,43.0375326],[106.8453294,43.0375306],[106.8453281,43.037614]]]},"properties":{"kind":"building","building":"yes","name":null,"height":5}},{"type":"Feature","geometry":{"type":"Polygon","coordinates":[[[106.8457331,43.0376767],[106.8460053,43.0376747],[106.8460034,43.0375346],[106.8457312,43.0375365],[106.8457331,43.0376767]]]},"properties":{"kind":"building","building":"yes","name":null,"height":5}},{"type":"Feature","geometry":{"type":"Polygon","coordinates":[[[106.8456446,43.0377198],[106.8456462,43.0378179],[106.8459801,43.037815],[106.8459785,43.0377169],[106.8456446,43.0377198]]]},"properties":{"kind":"building","building":"yes","name":null,"height":5}},{"type":"Feature","geometry":{"type":"Polygon","coordinates":[[[106.8454783,43.0375042],[106.8459302,43.0375022],[106.8459289,43.0373366],[106.8454769,43.0373385],[106.8454783,43.0375042]]]},"properties":{"kind":"building","building":"yes","name":null,"height":5}},{"type":"Feature","geometry":{"type":"Polygon","coordinates":[[[106.8459637,43.0372464],[106.8461862,43.0372413],[106.8461768,43.0370217],[106.8459544,43.0370268],[106.8459637,43.0372464]]]},"properties":{"kind":"building","building":"yes","name":null,"height":5}},{"type":"Feature","geometry":{"type":"Polygon","coordinates":[[[106.845784,43.0369895],[106.8461703,43.0369846],[106.8461644,43.0367377],[106.8457782,43.0367426],[106.845784,43.0369895]]]},"properties":{"kind":"building","building":"yes","name":null,"height":5}},{"type":"Feature","geometry":{"type":"Polygon","coordinates":[[[106.8466032,43.037371],[106.8465984,43.0366502],[106.8463059,43.0366512],[106.8463094,43.037166],[106.846431,43.0371656],[106.8464324,43.0373717],[106.8466032,43.037371]]]},"properties":{"kind":"building","building":"yes","name":null,"height":5}},{"type":"Feature","geometry":{"type":"Polygon","coordinates":[[[106.846633,43.0375385],[106.8474564,43.0375346],[106.8474551,43.0373918],[106.8466317,43.0373957],[106.846633,43.0375385]]]},"properties":{"kind":"building","building":"yes","name":null,"height":5}},{"type":"Feature","geometry":{"type":"Polygon","coordinates":[[[106.8475798,43.0373013],[106.8475744,43.0368562],[106.8474314,43.0368572],[106.8474368,43.0373022],[106.8475798,43.0373013]]]},"properties":{"kind":"building","building":"yes","name":null,"height":5}},{"type":"Feature","geometry":{"type":"Polygon","coordinates":[[[106.8466249,43.0373895],[106.8474349,43.0373836],[106.8474256,43.0366995],[106.8466156,43.0367054],[106.8466249,43.0373895]]]},"properties":{"kind":"building","building":"yes","name":null,"height":5}},{"type":"Feature","geometry":{"type":"Polygon","coordinates":[[[106.8444872,43.0366327],[106.8450102,43.036572],[106.8449863,43.0364622],[106.8444633,43.0365229],[106.8444872,43.0366327]]]},"properties":{"kind":"building","building":"yes","name":null,"height":5}},{"type":"Feature","geometry":{"type":"Polygon","coordinates":[[[106.8454796,43.0372738],[106.8456219,43.0372745],[106.8456272,43.0367001],[106.845485,43.0366994],[106.8454796,43.0372738]]]},"properties":{"kind":"building","building":"yes","name":null,"height":5}},{"type":"Feature","geometry":{"type":"Polygon","coordinates":[[[106.8446803,43.0373326],[106.8449778,43.0373346],[106.8449805,43.037115],[106.844683,43.0371131],[106.8446803,43.0373326]]]},"properties":{"kind":"building","building":"yes","name":null,"height":5}},{"type":"Feature","geometry":{"type":"Polygon","coordinates":[[[106.8448117,43.0377973],[106.8451148,43.0377973],[106.8451148,43.0376306],[106.8448117,43.0376306],[106.8448117,43.0377973]]]},"properties":{"kind":"building","building":"yes","name":null,"height":5}},{"type":"Feature","geometry":{"type":"Polygon","coordinates":[[[106.8434921,43.0375267],[106.8444738,43.037513],[106.8444668,43.0372478],[106.8434851,43.0372615],[106.8434921,43.0375267]]]},"properties":{"kind":"building","building":"yes","name":null,"height":5}},{"type":"Feature","geometry":{"type":"Polygon","coordinates":[[[106.8560985,43.0333842],[106.8564793,43.0333802],[106.856478,43.0333095],[106.8560971,43.0333134],[106.8560985,43.0333842]]]},"properties":{"kind":"building","building":"yes","name":null,"height":5}},{"type":"Feature","geometry":{"type":"Polygon","coordinates":[[[106.8562835,43.0350565],[106.8562782,43.034933],[106.8561605,43.0349357],[106.8561659,43.0350592],[106.8562835,43.0350565]]]},"properties":{"kind":"building","building":"yes","name":null,"height":5}},{"type":"Feature","geometry":{"type":"Polygon","coordinates":[[[106.857807,43.0339645],[106.8579519,43.0339606],[106.8579464,43.0338524],[106.8578016,43.0338564],[106.857807,43.0339645]]]},"properties":{"kind":"building","building":"yes","name":null,"height":5}},{"type":"Feature","geometry":{"type":"Polygon","coordinates":[[[106.85693,43.0339645],[106.8570802,43.0339606],[106.8570764,43.0338842],[106.8569262,43.0338881],[106.85693,43.0339645]]]},"properties":{"kind":"building","building":"yes","name":null,"height":5}},{"type":"Feature","geometry":{"type":"Polygon","coordinates":[[[106.8569407,43.03409],[106.8570963,43.034086],[106.8570923,43.0340018],[106.8569367,43.0340057],[106.8569407,43.03409]]]},"properties":{"kind":"building","building":"yes","name":null,"height":5}},{"type":"Feature","geometry":{"type":"Polygon","coordinates":[[[106.8559563,43.0341311],[106.8561054,43.0342031],[106.85621,43.0340875],[106.8560609,43.0340155],[106.8559563,43.0341311]]]},"properties":{"kind":"building","building":"yes","name":null,"height":5}},{"type":"Feature","geometry":{"type":"Polygon","coordinates":[[[106.8554601,43.033888],[106.8552321,43.0337743],[106.8551944,43.0338147],[106.8554224,43.0339284],[106.8554601,43.033888]]]},"properties":{"kind":"building","building":"yes","name":null,"height":5}},{"type":"Feature","geometry":{"type":"Polygon","coordinates":[[[106.8554682,43.033394],[106.8558142,43.03339],[106.8558107,43.0332251],[106.8554647,43.033229],[106.8554682,43.033394]]]},"properties":{"kind":"building","building":"yes","name":null,"height":5}},{"type":"Feature","geometry":{"type":"Polygon","coordinates":[[[106.856541,43.033592],[106.8575174,43.0335841],[106.8575134,43.0333214],[106.8565371,43.0333293],[106.856541,43.033592]]]},"properties":{"kind":"building","building":"yes","name":null,"height":5}},{"type":"Feature","geometry":{"type":"Polygon","coordinates":[[[106.8563962,43.034037],[106.856761,43.0340351],[106.85676,43.0339429],[106.8563953,43.0339449],[106.8563962,43.034037]]]},"properties":{"kind":"building","building":"yes","name":null,"height":5}},{"type":"Feature","geometry":{"type":"Polygon","coordinates":[[[106.8563989,43.0341939],[106.8567744,43.0341919],[106.8567734,43.034094],[106.8563979,43.0340959],[106.8563989,43.0341939]]]},"properties":{"kind":"building","building":"yes","name":null,"height":5}},{"type":"Feature","geometry":{"type":"Polygon","coordinates":[[[106.8565813,43.0346722],[106.8570748,43.0346644],[106.8570662,43.0343768],[106.8565727,43.0343846],[106.8565813,43.0346722]]]},"properties":{"kind":"building","building":"yes","name":null,"height":5}},{"type":"Feature","geometry":{"type":"Polygon","coordinates":[[[106.8556532,43.0349644],[106.8561338,43.0349594],[106.8561257,43.0345438],[106.8556452,43.0345487],[106.8556532,43.0349644]]]},"properties":{"kind":"building","building":"yes","name":null,"height":5}},{"type":"Feature","geometry":{"type":"Polygon","coordinates":[[[106.8552375,43.0342841],[106.855389,43.0341209],[106.8550216,43.0339385],[106.85487,43.0341017],[106.8552375,43.0342841]]]},"properties":{"kind":"building","building":"yes","name":null,"height":5}},{"type":"Feature","geometry":{"type":"Polygon","coordinates":[[[106.8535745,43.0352526],[106.853717,43.0352509],[106.8537089,43.0348706],[106.8535665,43.0348722],[106.8535745,43.0352526]]]},"properties":{"kind":"building","building":"yes","name":null,"height":5}},{"type":"Feature","geometry":{"type":"Polygon","coordinates":[[[106.8535772,43.034833],[106.8537817,43.0348292],[106.8537737,43.0345998],[106.8535691,43.0346036],[106.8535772,43.034833]]]},"properties":{"kind":"building","building":"yes","name":null,"height":5}},{"type":"Feature","geometry":{"type":"Polygon","coordinates":[[[106.8540198,43.0352624],[106.8546354,43.0352486],[106.8546193,43.0348643],[106.8540037,43.0348781],[106.8540198,43.0352624]]]},"properties":{"kind":"building","building":"yes","name":null,"height":5}},{"type":"Feature","geometry":{"type":"Polygon","coordinates":[[[106.8283671,43.0351036],[106.8286058,43.0351016],[106.8286036,43.0349544],[106.8283648,43.0349564],[106.8283671,43.0351036]]]},"properties":{"kind":"building","building":"yes","name":null,"height":5}},{"type":"Feature","geometry":{"type":"Polygon","coordinates":[[[106.8146878,43.0326627],[106.8151116,43.0326587],[106.8151078,43.0324353],[106.814684,43.0324392],[106.8146878,43.0326627]]]},"properties":{"kind":"building","building":"industrial","name":null,"height":5}},{"type":"Feature","geometry":{"type":"Polygon","coordinates":[[[106.8336484,43.0467029],[106.833702,43.0466558],[106.8336448,43.046621],[106.8335911,43.046668],[106.8336484,43.0467029]]]},"properties":{"kind":"building","building":"yes","name":null,"height":5}},{"type":"Feature","geometry":{"type":"Polygon","coordinates":[[[106.8526009,43.0455464],[106.8529147,43.0455444],[106.8529123,43.0453366],[106.8525984,43.0453386],[106.8526009,43.0455464]]]},"properties":{"kind":"building","building":"yes","name":null,"height":5}},{"type":"Feature","geometry":{"type":"Polygon","coordinates":[[[106.8524587,43.0452817],[106.8526867,43.0452837],[106.8526884,43.0451781],[106.8524604,43.0451762],[106.8524587,43.0452817]]]},"properties":{"kind":"building","building":"yes","name":null,"height":5}},{"type":"Feature","geometry":{"type":"Polygon","coordinates":[[[106.9152814,43.0004396],[106.9153858,43.0004117],[106.9153348,43.0003097],[106.9152305,43.0003376],[106.9152814,43.0004396]]]},"properties":{"kind":"building","building":"yes","name":null,"height":5}},{"type":"Feature","geometry":{"type":"Polygon","coordinates":[[[106.903697,43.0579884],[106.9036889,43.0577708],[106.903566,43.0577733],[106.9035741,43.0579908],[106.903697,43.0579884]]]},"properties":{"kind":"building","building":"yes","name":null,"height":5}},{"type":"Feature","geometry":{"type":"Polygon","coordinates":[[[106.9048208,43.0538041],[106.9050005,43.0538041],[106.9050005,43.0537081],[106.9048208,43.0537081],[106.9048208,43.0538041]]]},"properties":{"kind":"building","building":"yes","name":null,"height":5}},{"type":"Feature","geometry":{"type":"Polygon","coordinates":[[[106.9045901,43.0538472],[106.9046385,43.053848],[106.9046412,43.0537558],[106.9045928,43.0537551],[106.9045901,43.0538472]]]},"properties":{"kind":"building","building":"yes","name":null,"height":5}},{"type":"Feature","geometry":{"type":"Polygon","coordinates":[[[106.9028038,43.0542921],[106.9031337,43.0542907],[106.903131,43.0539536],[106.9028011,43.053955],[106.9028038,43.0542921]]]},"properties":{"kind":"building","building":"yes","name":null,"height":5}},{"type":"Feature","geometry":{"type":"Polygon","coordinates":[[[106.9037452,43.0546527],[106.9039035,43.0546547],[106.9039044,43.0546152],[106.9037461,43.0546133],[106.9037452,43.0546527]]]},"properties":{"kind":"building","building":"yes","name":null,"height":5}},{"type":"Feature","geometry":{"type":"Polygon","coordinates":[[[106.9047886,43.0544489],[106.9048852,43.0544509],[106.9048865,43.0544157],[106.9047899,43.0544138],[106.9047886,43.0544489]]]},"properties":{"kind":"building","building":"yes","name":null,"height":5}},{"type":"Feature","geometry":{"type":"Polygon","coordinates":[[[106.9043595,43.0544861],[106.9045445,43.0544861],[106.9045445,43.0544038],[106.9043595,43.0544038],[106.9043595,43.0544861]]]},"properties":{"kind":"building","building":"yes","name":null,"height":5}},{"type":"Feature","geometry":{"type":"Polygon","coordinates":[[[106.9048825,43.0547292],[106.9049442,43.0547292],[106.9049442,43.05469],[106.9048825,43.05469],[106.9048825,43.0547292]]]},"properties":{"kind":"building","building":"yes","name":null,"height":5}},{"type":"Feature","geometry":{"type":"Polygon","coordinates":[[[106.9044104,43.054788],[106.9044909,43.0547919],[106.9044961,43.054735],[106.9044156,43.0547311],[106.9044104,43.054788]]]},"properties":{"kind":"building","building":"yes","name":null,"height":5}},{"type":"Feature","geometry":{"type":"Polygon","coordinates":[[[106.9049522,43.0548958],[106.9047725,43.0548958],[106.9047725,43.0549624],[106.9049522,43.0549624],[106.9049522,43.0548958]]]},"properties":{"kind":"building","building":"yes","name":null,"height":5}},{"type":"Feature","geometry":{"type":"Polygon","coordinates":[[[106.9047993,43.0552368],[106.904904,43.0552403],[106.9049201,43.0549815],[106.9048154,43.0549781],[106.9047993,43.0552368]]]},"properties":{"kind":"building","building":"yes","name":null,"height":5}},{"type":"Feature","geometry":{"type":"Polygon","coordinates":[[[106.9044453,43.0554347],[106.9048959,43.0554347],[106.9048959,43.0552956],[106.9044453,43.0552956],[106.9044453,43.0554347]]]},"properties":{"kind":"building","building":"yes","name":null,"height":5}},{"type":"Feature","geometry":{"type":"Polygon","coordinates":[[[106.9050367,43.0519059],[106.9051687,43.051903],[106.9051633,43.0517717],[106.9050314,43.0517746],[106.9050367,43.0519059]]]},"properties":{"kind":"building","building":"yes","name":null,"height":5}},{"type":"Feature","geometry":{"type":"Polygon","coordinates":[[[106.907731,43.0514443],[106.9080287,43.0514433],[106.9080284,43.0513875],[106.9077307,43.0513885],[106.907731,43.0514443]]]},"properties":{"kind":"building","building":"yes","name":null,"height":5}},{"type":"Feature","geometry":{"type":"Polygon","coordinates":[[[106.9067828,43.0514982],[106.9069826,43.0514989],[106.9069839,43.0512951],[106.9067842,43.0512944],[106.9067828,43.0514982]]]},"properties":{"kind":"building","building":"yes","name":null,"height":5}},{"type":"Feature","geometry":{"type":"Polygon","coordinates":[[[106.9068834,43.0509504],[106.9070685,43.0509484],[106.9070668,43.0508623],[106.9068817,43.0508642],[106.9068834,43.0509504]]]},"properties":{"kind":"building","building":"yes","name":null,"height":5}},{"type":"Feature","geometry":{"type":"Polygon","coordinates":[[[106.8793425,43.016615],[106.8794328,43.0165879],[106.8793711,43.0164781],[106.8792808,43.0165052],[106.8793425,43.016615]]]},"properties":{"kind":"building","building":"yes","name":null,"height":5}},{"type":"Feature","geometry":{"type":"Polygon","coordinates":[[[106.8789777,43.0164836],[106.8790861,43.016444],[106.8790056,43.0163263],[106.8788972,43.0163659],[106.8789777,43.0164836]]]},"properties":{"kind":"building","building":"yes","name":null,"height":5}},{"type":"Feature","geometry":{"type":"Polygon","coordinates":[[[106.8762231,43.0168307],[106.8766898,43.0166542],[106.8765519,43.0164593],[106.8760852,43.0166358],[106.8762231,43.0168307]]]},"properties":{"kind":"building","building":"yes","name":null,"height":5}},{"type":"Feature","geometry":{"type":"Polygon","coordinates":[[[106.8237644,43.0509073],[106.8240193,43.0509039],[106.8240166,43.0507936],[106.8237617,43.0507969],[106.8237644,43.0509073]]]},"properties":{"kind":"building","building":"yes","name":null,"height":5}},{"type":"Feature","geometry":{"type":"Polygon","coordinates":[[[106.845244,43.136611],[106.8450154,43.1365219],[106.8450742,43.1364416],[106.8453027,43.1365308],[106.845244,43.136611]]]},"properties":{"kind":"building","building":"yes","name":null,"height":5}},{"type":"Feature","geometry":{"type":"Polygon","coordinates":[[[106.8456484,43.13797],[106.8456115,43.137958],[106.8456544,43.1378878],[106.8456914,43.1378998],[106.8456484,43.13797]]]},"properties":{"kind":"building","building":"yes","name":null,"height":5}},{"type":"Feature","geometry":{"type":"Polygon","coordinates":[[[106.8456355,43.1378821],[106.8456,43.1378721],[106.8456183,43.1378378],[106.8456399,43.1378439],[106.8456356,43.1378519],[106.8456494,43.1378558],[106.8456355,43.1378821]]]},"properties":{"kind":"building","building":"yes","name":null,"height":5}}]}