{"type":"FeatureCollection","features":[{"type":"Feature","geometry":{"type":"Point","coordinates":[106.85928755000003,43.02235809230769]},"properties":{"kind":"named-area","name":"Oyu Tolgoi"}},{"type":"Feature","geometry":{"type":"Point","coordinates":[106.82247762499999,43.04661025]},"properties":{"kind":"named-building","name":"OT Admin"}},{"type":"Feature","geometry":{"type":"Point","coordinates":[106.82251756000001,43.044987039999995]},"properties":{"kind":"named-building","name":"Mazaalai Mess hall"}},{"type":"Feature","geometry":{"type":"Point","coordinates":[106.81776775,43.046244225]},"properties":{"kind":"named-building","name":"OT Cafeteria"}},{"type":"Feature","geometry":{"type":"Point","coordinates":[106.81578329999999,43.04708397499999]},"properties":{"kind":"named-building","name":"OT Bar"}},{"type":"Feature","geometry":{"type":"Point","coordinates":[106.84625989374999,43.1347428625]},"properties":{"kind":"named-building","name":"Хан бумбат нисэх буудал"}},{"type":"Feature","geometry":{"type":"Point","coordinates":[106.82286852222222,43.0489152]},"properties":{"kind":"named-building","name":"North gate"}},{"type":"Feature","geometry":{"type":"Point","coordinates":[106.821834775,43.04942495000001]},"properties":{"kind":"named-building","name":"North gate"}},{"type":"Feature","geometry":{"type":"Point","coordinates":[106.8226887,43.04941145]},"properties":{"kind":"named-building","name":"North gate"}},{"type":"Feature","geometry":{"type":"Point","coordinates":[106.839413825,43.048733500000004]},"properties":{"kind":"named-building","name":"Stock pile"}},{"type":"Feature","geometry":{"type":"Point","coordinates":[106.83787357499999,43.045926124999994]},"properties":{"kind":"named-building","name":"Maintenance"}},{"type":"Feature","geometry":{"type":"Point","coordinates":[106.83744711363637,43.04626665454546]},"properties":{"kind":"named-building","name":"Maintenance"}},{"type":"Feature","geometry":{"type":"Point","coordinates":[106.8368429,43.04609375]},"properties":{"kind":"named-building","name":"Maintenance"}},{"type":"Feature","geometry":{"type":"Point","coordinates":[106.83629705,43.046068274999996]},"properties":{"kind":"named-building","name":"Maintenance"}},{"type":"Feature","geometry":{"type":"Point","coordinates":[106.83638925000001,43.0463699]},"properties":{"kind":"named-building","name":"Maintenance"}},{"type":"Feature","geometry":{"type":"Point","coordinates":[106.8368711,43.046618050000006]},"properties":{"kind":"named-building","name":"Maintenance"}},{"type":"Feature","geometry":{"type":"Point","coordinates":[106.8374551,43.046735225]},"properties":{"kind":"named-building","name":"Maintenance"}},{"type":"Feature","geometry":{"type":"Point","coordinates":[106.83253495555556,43.04660835555555]},"properties":{"kind":"named-building","name":"Хаягдал ус"}},{"type":"Feature","geometry":{"type":"Point","coordinates":[106.83274227079652,43.048457188495576]},"properties":{"kind":"named-building","name":"Concentrator"}},{"type":"Feature","geometry":{"type":"Point","coordinates":[106.82900015,43.041810625]},"properties":{"kind":"named-building","name":"Уушын газар"}},{"type":"Feature","geometry":{"type":"Point","coordinates":[106.82939238333336,43.042914191666654]},"properties":{"kind":"named-building","name":"Манлай Хоолны газар"}},{"type":"Feature","geometry":{"type":"Point","coordinates":[106.82821586249999,43.0414898375]},"properties":{"kind":"named-building","name":"Манлай амрах байр"}},{"type":"Feature","geometry":{"type":"Point","coordinates":[106.8314942375,43.04145235]},"properties":{"kind":"named-building","name":"Манлай амрах байр"}},{"type":"Feature","geometry":{"type":"Point","coordinates":[106.8315063375,43.041975837500004]},"properties":{"kind":"named-building","name":"Манлай амрах байр"}},{"type":"Feature","geometry":{"type":"Point","coordinates":[106.83152237499999,43.042611924999996]},"properties":{"kind":"named-building","name":"Манлай амрах байр"}},{"type":"Feature","geometry":{"type":"Point","coordinates":[106.83154386249998,43.043147075]},"properties":{"kind":"named-building","name":"Манлай амрах байр"}},{"type":"Feature","geometry":{"type":"Point","coordinates":[106.828229975,43.042041475000005]},"properties":{"kind":"named-building","name":"Манлай амрах байр"}},{"type":"Feature","geometry":{"type":"Point","coordinates":[106.82826479999999,43.04267265]},"properties":{"kind":"named-building","name":"Манлай амрах байр"}},{"type":"Feature","geometry":{"type":"Point","coordinates":[106.8282715125,43.043206837499994]},"properties":{"kind":"named-building","name":"Манлай амрах байр"}},{"type":"Feature","geometry":{"type":"Point","coordinates":[106.82700572499999,43.0420302]},"properties":{"kind":"named-building","name":"Манлай амрах байр"}},{"type":"Feature","geometry":{"type":"Point","coordinates":[106.83027136249999,43.0414656]},"properties":{"kind":"named-building","name":"Манлай амрах байр"}},{"type":"Feature","geometry":{"type":"Point","coordinates":[106.8303034875,43.041985075]},"properties":{"kind":"named-building","name":"Манлай амрах байр"}},{"type":"Feature","geometry":{"type":"Point","coordinates":[106.8303034875,43.0426251]},"properties":{"kind":"named-building","name":"Манлай амрах байр"}},{"type":"Feature","geometry":{"type":"Point","coordinates":[106.82700037500001,43.0415087625]},"properties":{"kind":"named-building","name":"Манлай амрах байр"}},{"type":"Feature","geometry":{"type":"Point","coordinates":[106.830318275,43.043173974999995]},"properties":{"kind":"named-building","name":"Манлай амрах байр"}},{"type":"Feature","geometry":{"type":"Point","coordinates":[106.827035175,43.04269666249999]},"properties":{"kind":"named-building","name":"Манлай амрах байр"}},{"type":"Feature","geometry":{"type":"Point","coordinates":[106.827051275,43.04322201250001]},"properties":{"kind":"named-building","name":"Манлай амрах байр"}},{"type":"Feature","geometry":{"type":"Point","coordinates":[106.82810627500001,43.049619875]},"properties":{"kind":"named-building","name":"Container"}},{"type":"Feature","geometry":{"type":"Point","coordinates":[106.828108275,43.0497115]},"properties":{"kind":"named-building","name":"Container"}},{"type":"Feature","geometry":{"type":"Point","coordinates":[106.82810895,43.049805825]},"properties":{"kind":"named-building","name":"Container"}},{"type":"Feature","geometry":{"type":"Point","coordinates":[106.82112985,43.0444809875]},"properties":{"kind":"named-building","name":"Training Center"}},{"type":"Feature","geometry":{"type":"Point","coordinates":[106.85157455000001,43.008490376315784]},"properties":{"kind":"named-area","name":"Oyu Tolgoi - Southwest Oyu"}},{"type":"Feature","geometry":{"type":"Point","coordinates":[106.83295035,43.044046800000004]},"properties":{"kind":"named-building","name":"Хаягдал ус"}},{"type":"Feature","geometry":{"type":"Point","coordinates":[106.83308643333334,43.04626594666667]},"properties":{"kind":"named-building","name":"Хаягдал ус"}},{"type":"Feature","geometry":{"type":"Point","coordinates":[106.83311434000001,43.04707267333334]},"properties":{"kind":"named-building","name":"Хаягдал ус"}},{"type":"Feature","geometry":{"type":"Point","coordinates":[106.8558463,43.034238975]},"properties":{"kind":"mineshaft","name":"Shaft #1","shaftType":"production"}},{"type":"Feature","geometry":{"type":"Point","coordinates":[106.84579075,43.037952125000004]},"properties":{"kind":"mineshaft","name":"Shaft #2","shaftType":"winding"}},{"type":"Feature","geometry":{"type":"Point","coordinates":[106.84719285,43.035683875]},"properties":{"kind":"mineshaft","name":"Shaft #5","shaftType":"air"}}]}